{"type":"FeatureCollection","name":"Эпидемии","crs":{"type":"name","properties":{"name":"urn:ogc:def:crs:OGC:1.3/CRS84"}},"features":[{"type":"Feature","id":"epidemics:1eae4e9ba493","geometry":{"type":"Point","coordinates":[37.6175,55.750556]},"properties":{"uid":"epidemics:1eae4e9ba493","layer":"epidemics","layer_title":"Эпидемии","group":"hardship","title":"Ликвидация вспышки оспы в Москве 1959—1960","category":"вспышка эпидемии","year_from":1959,"year_to":1960,"date_precision":"year","date_approx":false,"period_raw":"1959–1960","summary":"инцидент и связанная с ним операция по оперативной локализации заболевания, завезённого в СССР из Индии","url":"https://ru.wikipedia.org/wiki/%D0%92%D1%81%D0%BF%D1%8B%D1%88%D0%BA%D0%B0_%D0%BE%D1%81%D0%BF%D1%8B_%D0%B2_%D0%9C%D0%BE%D1%81%D0%BA%D0%B2%D0%B5_(1959%E2%80%941960)","source":"Викиданные + справочная литература","source_id":"Q91614801","license":"CC0 (Викиданные)","confidence":"place_level"}}]}