{"type":"FeatureCollection","name":"Ярмарки и торги","crs":{"type":"name","properties":{"name":"urn:ogc:def:crs:OGC:1.3/CRS84"}},"features":[{"type":"Feature","id":"fairs:5bccb582bf27","geometry":{"type":"Point","coordinates":[25.2867,54.6853]},"properties":{"uid":"fairs:5bccb582bf27","layer":"fairs","layer_title":"Ярмарки и торги","group":"economy","title":"Казюк","category":"ярмарка","place_text":"Вильнюс","region":"Вильнюс","date_precision":"unknown","date_approx":false,"summary":"традиционная ежегодная ярмарка изделий народных промыслов в Литве","url":"https://ru.wikipedia.org/wiki/%D0%9A%D0%B0%D0%B7%D1%8E%D0%BA","image_url":"http://commons.wikimedia.org/wiki/Special:FilePath/Kziuko%20muge.jpg","source":"Викиданные","source_id":"Q1988340","license":"CC0 (Викиданные)","confidence":"ok"}},{"type":"Feature","id":"fairs:8826de34c9fc","geometry":{"type":"Point","coordinates":[43.960931,56.328433]},"properties":{"uid":"fairs:8826de34c9fc","layer":"fairs","layer_title":"Ярмарки и торги","group":"economy","title":"Нижегородская ярмарка","category":"бизнес-центр","place_text":"Нижний Новгород","region":"Нижний Новгород","year_from":1817,"year_to":1960,"date_precision":"part","date_approx":true,"period_raw":"с 1817","summary":"Главный выставочный комплекс Нижнего Новгорода. Бывший торговый центр Российской империи.","url":"https://ru.wikipedia.org/wiki/%D0%9D%D0%B8%D0%B6%D0%B5%D0%B3%D0%BE%D1%80%D0%BE%D0%B4%D1%81%D0%BA%D0%B0%D1%8F_%D1%8F%D1%80%D0%BC%D0%B0%D1%80%D0%BA%D0%B0","image_url":"http://commons.wikimedia.org/wiki/Special:FilePath/NN-16-05-2022%2041.jpg","source":"Викиданные","source_id":"Q2371326","license":"CC0 (Викиданные)","confidence":"ok"}},{"type":"Feature","id":"fairs:06950a19b1bf","geometry":{"type":"Point","coordinates":[30.332222,59.934167]},"properties":{"uid":"fairs:06950a19b1bf","layer":"fairs","layer_title":"Ярмарки и торги","group":"economy","title":"Гостиный двор","category":"памятник архитектуры","place_text":"Центральный район","region":"Центральный район","year_from":1785,"year_to":1960,"date_precision":"part","date_approx":true,"period_raw":"с 1785","summary":"торговый центр в Санкт-Петербурге, Россия","url":"https://ru.wikipedia.org/wiki/%D0%93%D0%BE%D1%81%D1%82%D0%B8%D0%BD%D1%8B%D0%B9_%D0%B4%D0%B2%D0%BE%D1%80_(%D0%A1%D0%B0%D0%BD%D0%BA%D1%82-%D0%9F%D0%B5%D1%82%D0%B5%D1%80%D0%B1%D1%83%D1%80%D0%B3)","image_url":"http://commons.wikimedia.org/wiki/Special:FilePath/%D0%93%D0%BE%D1%81%D1%82%D0%B8%D0%BD%D1%8B%D0%B9%20%D0%B4%D0%B2%D0%BE%D1%80%20%D0%A1%D0%9F%D0%B1.jpg","source":"Викиданные","source_id":"Q3052597","license":"CC0 (Викиданные)","confidence":"ok"}},{"type":"Feature","id":"fairs:96ae1844ef71","geometry":{"type":"Point","coordinates":[39.886363,57.624165]},"properties":{"uid":"fairs:96ae1844ef71","layer":"fairs","layer_title":"Ярмарки и торги","group":"economy","title":"Гостиный двор","category":"памятник архитектуры","place_text":"Ярославль","region":"Ярославль","year_from":1813,"year_to":1960,"date_precision":"part","date_approx":true,"period_raw":"с 1813","summary":"Торговые ряды в Ярославле","url":"https://ru.wikipedia.org/wiki/%D0%93%D0%BE%D1%81%D1%82%D0%B8%D0%BD%D1%8B%D0%B9_%D0%B4%D0%B2%D0%BE%D1%80_(%D0%AF%D1%80%D0%BE%D1%81%D0%BB%D0%B0%D0%B2%D0%BB%D1%8C)","image_url":"http://commons.wikimedia.org/wiki/Special:FilePath/Trade-rows-yar.jpg","source":"Викиданные","source_id":"Q4146509","license":"CC0 (Викиданные)","confidence":"ok"}},{"type":"Feature","id":"fairs:fa5dea816979","geometry":{"type":"Point","coordinates":[44.50428,40.178435]},"properties":{"uid":"fairs:fa5dea816979","layer":"fairs","layer_title":"Ярмарки и торги","group":"economy","title":"Центральный крытый рынок","category":"культурная ценность","place_text":"Ереван","region":"Ереван","date_precision":"unknown","date_approx":false,"summary":"памятник культурного наследия в Армении","url":"https://ru.wikipedia.org/wiki/%D0%A6%D0%B5%D0%BD%D1%82%D1%80%D0%B0%D0%BB%D1%8C%D0%BD%D1%8B%D0%B9_%D0%BA%D1%80%D1%8B%D1%82%D1%8B%D0%B9_%D1%80%D1%8B%D0%BD%D0%BE%D0%BA_(%D0%95%D1%80%D0%B5%D0%B2%D0%B0%D0%BD)","image_url":"http://commons.wikimedia.org/wiki/Special:FilePath/Yerevan%20market%20II%2C%20Armenia.jpg","source":"Викиданные","source_id":"Q6010445","license":"CC0 (Викиданные)","confidence":"ok"}},{"type":"Feature","id":"fairs:f6b448126ccc","geometry":{"type":"Point","coordinates":[44.518461,40.175786]},"properties":{"uid":"fairs:f6b448126ccc","layer":"fairs","layer_title":"Ярмарки и торги","group":"economy","title":"Вернисаж","category":"ярмарка","place_text":"Ереван","region":"Ереван","date_precision":"unknown","date_approx":false,"summary":"ярмарка в Ереване","url":"https://ru.wikipedia.org/wiki/%D0%92%D0%B5%D1%80%D0%BD%D0%B8%D1%81%D0%B0%D0%B6_(%D0%95%D1%80%D0%B5%D0%B2%D0%B0%D0%BD)","image_url":"http://commons.wikimedia.org/wiki/Special:FilePath/Yerevan%20Vernissage%20hats.jpg","source":"Викиданные","source_id":"Q15982040","license":"CC0 (Викиданные)","confidence":"ok"}},{"type":"Feature","id":"fairs:29f9751a699d","geometry":{"type":"Point","coordinates":[44.596827,48.799818]},"properties":{"uid":"fairs:29f9751a699d","layer":"fairs","layer_title":"Ярмарки и торги","group":"economy","title":"Сталинградский цирк","category":"крытый рынок","place_text":"Тракторозаводский район (Волгоград)","region":"Тракторозаводский район (Волгоград)","year_from":1932,"year_to":1960,"date_precision":"part","date_approx":true,"period_raw":"с 1932","summary":"бывшее здание цирка в Волгограде","url":"https://www.wikidata.org/wiki/Q95464380","image_url":"http://commons.wikimedia.org/wiki/Special:FilePath/%D0%A6%D0%B8%D1%80%D0%BA%20%28%D1%80%D1%8B%D0%BD%D0%BE%D0%BA%29%20%D0%9E%D0%9A%D0%9D.JPG","source":"Викиданные","source_id":"Q95464380","license":"CC0 (Викиданные)","confidence":"ok"}},{"type":"Feature","id":"fairs:e5548ab7ed80","geometry":{"type":"Point","coordinates":[30.309444,59.936944]},"properties":{"uid":"fairs:e5548ab7ed80","layer":"fairs","layer_title":"Ярмарки и торги","group":"economy","title":"Ярмарочные гуляния на Адмиралтейском лугу","category":"ярмарка","place_text":"Санкт-Петербург","region":"Санкт-Петербург","date_precision":"unknown","date_approx":false,"summary":"Ярмарочные гуляния на Адмиралтейском лугу, Санкт-Петербург","url":"https://www.wikidata.org/wiki/Q104542621","image_url":"http://commons.wikimedia.org/wiki/Special:FilePath/Fair%20on%20the%20Admiralty%20meadow%20in%20Maslenitsa.jpg","source":"Викиданные","source_id":"Q104542621","license":"CC0 (Викиданные)","confidence":"ok"}},{"type":"Feature","id":"fairs:bf16b4d595b0","geometry":{"type":"Point","coordinates":[37.668056,55.710278]},"properties":{"uid":"fairs:bf16b4d595b0","layer":"fairs","layer_title":"Ярмарки и торги","group":"economy","title":"Велозаводский рынок","category":"крытый рынок","place_text":"Москва","region":"Москва","date_precision":"unknown","date_approx":false,"summary":"крытый рынок в Москве","url":"https://www.wikidata.org/wiki/Q135189034","image_url":"http://commons.wikimedia.org/wiki/Special:FilePath/Moscow%20Velozavodsky%20Market%20asv2018-08%20img1.jpg","source":"Викиданные","source_id":"Q135189034","license":"CC0 (Викиданные)","confidence":"ok"}},{"type":"Feature","id":"fairs:b0ba81e981cf","geometry":{"type":"Point","coordinates":[30.309,59.9163]},"properties":{"uid":"fairs:b0ba81e981cf","layer":"fairs","layer_title":"Ярмарки и торги","group":"economy","title":"Измайловский гостиный двор","category":"гостиный двор","place_text":"Санкт-Петербург","region":"Санкт-Петербург","year_from":1796,"year_to":1960,"date_precision":"part","date_approx":true,"period_raw":"с 1796","summary":"здание на 1-й Красноармейской улице в Санкт-Петербурге","url":"https://www.wikidata.org/wiki/Q136266255","image_url":"http://commons.wikimedia.org/wiki/Special:FilePath/Izmailovsky%20Gostiny%20Dvor%202.jpg","source":"Викиданные","source_id":"Q136266255","license":"CC0 (Викиданные)","confidence":"ok"}},{"type":"Feature","id":"fairs:63a5f12eae44","geometry":{"type":"Point","coordinates":[22.010504,50.038228]},"properties":{"uid":"fairs:63a5f12eae44","layer":"fairs","layer_title":"Ярмарки и торги","group":"economy","title":"Hala Targowa","category":"крытый рынок","place_text":"Жешув","region":"Жешув","year_from":1956,"year_to":1960,"date_precision":"part","date_approx":true,"period_raw":"с 1956","url":"https://www.wikidata.org/wiki/Q125490946","image_url":"http://commons.wikimedia.org/wiki/Special:FilePath/Hala%20targowa%20rzesz%C3%B3w.jpg","source":"Викиданные","source_id":"Q125490946","license":"CC0 (Викиданные)","confidence":"ok"}},{"type":"Feature","id":"fairs:4ea00f0bb472","geometry":{"type":"Point","coordinates":[18.049439,53.170721]},"properties":{"uid":"fairs:4ea00f0bb472","layer":"fairs","layer_title":"Ярмарки и торги","group":"economy","title":"Bydgoskie Centrum Targowo-Wystawiennicze","category":"крытый рынок","date_precision":"unknown","date_approx":false,"url":"https://www.wikidata.org/wiki/Q129836805","image_url":"http://commons.wikimedia.org/wiki/Special:FilePath/Bydgoskie%20Centrum%20Targowo-Wystawiennicze%2004.jpg","source":"Викиданные","source_id":"Q129836805","license":"CC0 (Викиданные)","confidence":"ok"}},{"type":"Feature","id":"fairs:23b783beb631","geometry":{"type":"Point","coordinates":[30.723729,46.486525]},"properties":{"uid":"fairs:23b783beb631","layer":"fairs","layer_title":"Ярмарки и торги","group":"economy","title":"Торгові корпуси критого Новобазарного ринку","category":"крытый рынок","place_text":"Одесса","region":"Одесса","date_precision":"unknown","date_approx":false,"url":"https://www.wikidata.org/wiki/Q135959486","source":"Викиданные","source_id":"Q135959486","license":"CC0 (Викиданные)","confidence":"ok"}},{"type":"Feature","id":"fairs:6fb733e55c05","geometry":{"type":"Point","coordinates":[19.949845,50.058147]},"properties":{"uid":"fairs:6fb733e55c05","layer":"fairs","layer_title":"Ярмарки и торги","group":"economy","title":"hala targowa tzw. mała w zespole zabudowań Hali Targowej w Krakowie","category":"крытый рынок","place_text":"Краков","region":"Краков","date_precision":"unknown","date_approx":false,"url":"https://www.wikidata.org/wiki/Q137683090","source":"Викиданные","source_id":"Q137683090","license":"CC0 (Викиданные)","confidence":"ok"}},{"type":"Feature","id":"fairs:668d02476700","geometry":{"type":"Point","coordinates":[24.116,56.944]},"properties":{"uid":"fairs:668d02476700","layer":"fairs","layer_title":"Ярмарки и торги","group":"economy","title":"Рижский центральный рынок","category":"крытый рынок","place_text":"Рига","region":"Рига","date_precision":"unknown","date_approx":false,"url":"https://ru.wikipedia.org/wiki/%D0%A6%D0%B5%D0%BD%D1%82%D1%80%D0%B0%D0%BB%D1%8C%D0%BD%D1%8B%D0%B9_%D1%80%D1%8B%D0%BD%D0%BE%D0%BA_(%D0%A0%D0%B8%D0%B3%D0%B0)","image_url":"http://commons.wikimedia.org/wiki/Special:FilePath/Mercado%20Central%2C%20Riga%2C%20Letonia%2C%202012-08-07%2C%20DD%2001.JPG","source":"Викиданные","source_id":"Q190670","license":"CC0 (Викиданные)","confidence":"ok"}},{"type":"Feature","id":"fairs:fd87350ccd2d","geometry":{"type":"Point","coordinates":[30.521625,50.442356]},"properties":{"uid":"fairs:fd87350ccd2d","layer":"fairs","layer_title":"Ярмарки и торги","group":"economy","title":"Бессарабский рынок","category":"Фудкорт","place_text":"Киев","region":"Киев","year_from":1912,"year_to":1960,"date_precision":"part","date_approx":true,"period_raw":"с 1912","url":"https://ru.wikipedia.org/wiki/%D0%91%D0%B5%D1%81%D1%81%D0%B0%D1%80%D0%B0%D0%B1%D1%81%D0%BA%D0%B8%D0%B9_%D1%80%D1%8B%D0%BD%D0%BE%D0%BA","image_url":"http://commons.wikimedia.org/wiki/Special:FilePath/KIev-KhreshchatykStr-BessarabskyiMarket.jpg","source":"Викиданные","source_id":"Q2627311","license":"CC0 (Викиданные)","confidence":"ok"}},{"type":"Feature","id":"fairs:bd877df9fab3","geometry":{"type":"Point","coordinates":[24.9511,60.18]},"properties":{"uid":"fairs:bd877df9fab3","layer":"fairs","layer_title":"Ярмарки и торги","group":"economy","title":"Hakaniemi market hall","category":"крытый рынок","place_text":"Хельсинки","region":"Хельсинки","year_from":1912,"year_to":1960,"date_precision":"part","date_approx":true,"period_raw":"с 1912","url":"https://www.wikidata.org/wiki/Q3126107","image_url":"http://commons.wikimedia.org/wiki/Special:FilePath/Hakaniemen%20kauppahallin%20dokumentointi%20-%20G27893%20-%20hkm.HKMS000005-km0000ofat.jpg","source":"Викиданные","source_id":"Q3126107","license":"CC0 (Викиданные)","confidence":"ok"}},{"type":"Feature","id":"fairs:c38bd5d030bb","geometry":{"type":"Point","coordinates":[24.929486,60.163003]},"properties":{"uid":"fairs:c38bd5d030bb","layer":"fairs","layer_title":"Ярмарки и торги","group":"economy","title":"Hietalahti Market Hall","category":"крытый рынок","place_text":"Хельсинки","region":"Хельсинки","year_from":1904,"year_to":1960,"date_precision":"part","date_approx":true,"period_raw":"с 1904","url":"https://www.wikidata.org/wiki/Q3135324","image_url":"http://commons.wikimedia.org/wiki/Special:FilePath/Hietalahdenhalli2008a.jpg","source":"Викиданные","source_id":"Q3135324","license":"CC0 (Викиданные)","confidence":"ok"}},{"type":"Feature","id":"fairs:7e6bee8aa53e","geometry":{"type":"Point","coordinates":[24.952778,60.166111]},"properties":{"uid":"fairs:7e6bee8aa53e","layer":"fairs","layer_title":"Ярмарки и торги","group":"economy","title":"Old Market Hall","category":"крытый рынок","place_text":"Хельсинки","region":"Хельсинки","year_from":1889,"year_to":1960,"date_precision":"part","date_approx":true,"period_raw":"с 1889","url":"https://www.wikidata.org/wiki/Q3557940","image_url":"http://commons.wikimedia.org/wiki/Special:FilePath/Antiguo%20Mercado%20de%20Helsinki%2C%20Finlandia%2C%202012-08-14%2C%20DD%2001.JPG","source":"Викиданные","source_id":"Q3557940","license":"CC0 (Викиданные)","confidence":"ok"}},{"type":"Feature","id":"fairs:fba341f12558","geometry":{"type":"Point","coordinates":[107.586111,51.825556]},"properties":{"uid":"fairs:fba341f12558","layer":"fairs","layer_title":"Ярмарки и торги","group":"economy","title":"Верхнеудинская ярмарка","category":"ярмарка","date_precision":"unknown","date_approx":false,"url":"https://ru.wikipedia.org/wiki/%D0%92%D0%B5%D1%80%D1%85%D0%BD%D0%B5%D1%83%D0%B4%D0%B8%D0%BD%D1%81%D0%BA%D0%B0%D1%8F_%D1%8F%D1%80%D0%BC%D0%B0%D1%80%D0%BA%D0%B0","source":"Викиданные","source_id":"Q4108534","license":"CC0 (Викиданные)","confidence":"ok"}},{"type":"Feature","id":"fairs:99147c55085c","geometry":{"type":"Point","coordinates":[92.891667,56.011667]},"properties":{"uid":"fairs:99147c55085c","layer":"fairs","layer_title":"Ярмарки и торги","group":"economy","title":"Гостиный двор (Красноярск)","category":"гостиный двор","place_text":"Красноярск","region":"Красноярск","date_precision":"unknown","date_approx":false,"url":"https://ru.wikipedia.org/wiki/%D0%93%D0%BE%D1%81%D1%82%D0%B8%D0%BD%D1%8B%D0%B9_%D0%B4%D0%B2%D0%BE%D1%80_(%D0%9A%D1%80%D0%B0%D1%81%D0%BD%D0%BE%D1%8F%D1%80%D1%81%D0%BA)","image_url":"http://commons.wikimedia.org/wiki/Special:FilePath/Gostiny%20dvor%20krsk.JPG","source":"Викиданные","source_id":"Q4146499","license":"CC0 (Викиданные)","confidence":"ok"}},{"type":"Feature","id":"fairs:90d699959e02","geometry":{"type":"Point","coordinates":[49.11056,55.795018]},"properties":{"uid":"fairs:90d699959e02","layer":"fairs","layer_title":"Ярмарки и торги","group":"economy","title":"Комплекс гостиного двора (Казань)","category":"национальный объект культурного наследия","place_text":"Казань","region":"Казань","date_precision":"unknown","date_approx":false,"url":"https://www.wikidata.org/wiki/Q4146496","image_url":"http://commons.wikimedia.org/wiki/Special:FilePath/%D0%9D%D0%B0%D1%86%D0%B8%D0%BE%D0%BD%D0%B0%D0%BB%D1%8C%D0%BD%D1%8B%D0%B9%20%D0%BC%D1%83%D0%B7%D0%B5%D0%B9%20%D0%A0%D0%B5%D1%81%D0%BF%D1%83%D0%B1%D0%BB%D0%B8%D0%BA%D0%B8%20%D0%A2%D0%B0%D1%82%D0%B0%D1%80%D1%81%D1%82%D0%B0%D0%BD.JPG","source":"Викиданные","source_id":"Q4146496","license":"CC0 (Викиданные)","confidence":"ok"}},{"type":"Feature","id":"fairs:4e29ac5aa5a4","geometry":{"type":"Point","coordinates":[40.511111,64.539167]},"properties":{"uid":"fairs:4e29ac5aa5a4","layer":"fairs","layer_title":"Ярмарки и торги","group":"economy","title":"Гостиный двор (Архангельск)","category":"памятник архитектуры","place_text":"Архангельск","region":"Архангельск","year_from":1684,"year_to":1960,"date_precision":"part","date_approx":true,"period_raw":"с 1684","url":"https://ru.wikipedia.org/wiki/%D0%93%D0%BE%D1%81%D1%82%D0%B8%D0%BD%D1%8B%D0%B9_%D0%B4%D0%B2%D0%BE%D1%80_(%D0%90%D1%80%D1%85%D0%B0%D0%BD%D0%B3%D0%B5%D0%BB%D1%8C%D1%81%D0%BA)","image_url":"http://commons.wikimedia.org/wiki/Special:FilePath/%D0%90%D1%80%D1%85%D0%B0%D0%BD%D0%B3%D0%B5%D0%BB%D1%8C%D1%81%D0%BA%2C%20%D1%80%D1%83%D1%81%D1%81%D0%BA%D0%B8%D0%B9%20%D0%93%D0%BE%D1%81%D1%82%D0%B8%D0%BD%D1%8B%D0%B9%20%D0%B4%D0%B2%D0%BE%D1%80.jpg","source":"Викиданные","source_id":"Q4146500","license":"CC0 (Викиданные)","confidence":"ok"}},{"type":"Feature","id":"fairs:7219ff81c4a1","geometry":{"type":"Point","coordinates":[29.767,59.997]},"properties":{"uid":"fairs:7219ff81c4a1","layer":"fairs","layer_title":"Ярмарки и торги","group":"economy","title":"Гостиный двор (Кронштадт)","category":"памятник архитектуры","place_text":"Кронштадт","region":"Кронштадт","year_from":1832,"year_to":1960,"date_precision":"part","date_approx":true,"period_raw":"с 1832","url":"https://ru.wikipedia.org/wiki/%D0%93%D0%BE%D1%81%D1%82%D0%B8%D0%BD%D1%8B%D0%B9_%D0%B4%D0%B2%D0%BE%D1%80_(%D0%9A%D1%80%D0%BE%D0%BD%D1%88%D1%82%D0%B0%D0%B4%D1%82)","image_url":"http://commons.wikimedia.org/wiki/Special:FilePath/%D0%93%D0%BE%D1%81%D1%82%D0%B8%D0%BD%D1%8B%D0%B9%20%D0%B4%D0%B2%D0%BE%D1%80%20%D0%B2%20%D0%9A%D1%80%D0%BE%D0%BD%D1%88%D1%82%D0%B0%D0%B4%D1%82%D0%B5%2002.JPG","source":"Викиданные","source_id":"Q4146501","license":"CC0 (Викиданные)","confidence":"ok"}},{"type":"Feature","id":"fairs:1eceab988206","geometry":{"type":"Point","coordinates":[30.29893,59.94349]},"properties":{"uid":"fairs:1eceab988206","layer":"fairs","layer_title":"Ярмарки и торги","group":"economy","title":"Новобиржевой Гостиный двор","category":"факультет","place_text":"Василеостровский район","region":"Василеостровский район","year_from":1800,"year_to":1960,"date_precision":"part","date_approx":true,"period_raw":"с 1800","url":"https://ru.wikipedia.org/wiki/%D0%9D%D0%BE%D0%B2%D0%BE%D0%B1%D0%B8%D1%80%D0%B6%D0%B5%D0%B2%D0%BE%D0%B9_%D0%93%D0%BE%D1%81%D1%82%D0%B8%D0%BD%D1%8B%D0%B9_%D0%B4%D0%B2%D0%BE%D1%80","image_url":"http://commons.wikimedia.org/wiki/Special:FilePath/%D0%A1%D0%B0%D0%BD%D0%BA%D1%82-%D0%9F%D0%B5%D1%82%D0%B5%D1%80%D0%B1%D1%83%D1%80%D0%B3%2C%20%D0%9C%D0%B5%D0%BD%D0%B4%D0%B5%D0%BB%D0%B5%D0%B5%D0%B2%D1%81%D0%BA%D0%B0%D1%8F%20%D0%BB%D0%B8%D0%BD%D0%B8%D1%8F%2C%205%20%C2%A6%20%D0%91%D0%B8%D1%80%D0%B6%D0%B5%D0%B2%D0%BE%D0%B9%20%D0%BF%D1%80%D0%BE%D0%B5%D0%B7%D0%B4%2C%202.jpg","source":"Викиданные","source_id":"Q4323247","license":"CC0 (Викиданные)","confidence":"ok"}},{"type":"Feature","id":"fairs:f0e203259333","geometry":{"type":"Point","coordinates":[37.627547,55.753599]},"properties":{"uid":"fairs:f0e203259333","layer":"fairs","layer_title":"Ярмарки и торги","group":"economy","title":"Новый Гостиный двор","category":"памятник архитектуры","place_text":"Тверской район","region":"Тверской район","year_from":1838,"year_to":1960,"date_precision":"part","date_approx":true,"period_raw":"с 1838","url":"https://ru.wikipedia.org/wiki/%D0%9D%D0%BE%D0%B2%D1%8B%D0%B9_%D0%93%D0%BE%D1%81%D1%82%D0%B8%D0%BD%D1%8B%D0%B9_%D0%B4%D0%B2%D0%BE%D1%80","image_url":"http://commons.wikimedia.org/wiki/Special:FilePath/%D0%9D%D0%BE%D0%B2%D1%8B%D0%B9%20%D0%93%D0%BE%D1%81%D1%82%D0%B8%D0%BD%D1%8B%D0%B9%20%D0%B4%D0%B2%D0%BE%D1%80%2C%20%D0%9C%D0%BE%D1%81%D0%BA%D0%B2%D0%B0%2004.jpg","source":"Викиданные","source_id":"Q4326622","license":"CC0 (Викиданные)","confidence":"ok"}},{"type":"Feature","id":"fairs:bc5d22e103ce","geometry":{"type":"Point","coordinates":[20.971586,52.271356]},"properties":{"uid":"fairs:bc5d22e103ce","layer":"fairs","layer_title":"Ярмарки и торги","group":"economy","title":"Hala Marymoncka","category":"крытый рынок","place_text":"Жолибож","region":"Жолибож","date_precision":"unknown","date_approx":false,"url":"https://www.wikidata.org/wiki/Q9285120","image_url":"http://commons.wikimedia.org/wiki/Special:FilePath/Warszawa-Marymont%27s%20Market%20Hall.jpg","source":"Викиданные","source_id":"Q9285120","license":"CC0 (Викиданные)","confidence":"ok"}},{"type":"Feature","id":"fairs:000910f66e39","geometry":{"type":"Point","coordinates":[21.0108,52.2222]},"properties":{"uid":"fairs:000910f66e39","layer":"fairs","layer_title":"Ярмарки и торги","group":"economy","title":"Hala Na Koszykach","category":"крытый рынок","place_text":"Варшава","region":"Варшава","date_precision":"unknown","date_approx":false,"url":"https://www.wikidata.org/wiki/Q9285175","image_url":"http://commons.wikimedia.org/wiki/Special:FilePath/Front%20facade%20of%20Hala%20Koszyki%2C%20Warsaw%2C%20Poland.jpg","source":"Викиданные","source_id":"Q9285175","license":"CC0 (Викиданные)","confidence":"ok"}},{"type":"Feature","id":"fairs:4c2f310294ec","geometry":{"type":"Point","coordinates":[18.652,54.3528]},"properties":{"uid":"fairs:4c2f310294ec","layer":"fairs","layer_title":"Ярмарки и торги","group":"economy","title":"Market Hall in Gdańsk","category":"крытый рынок","place_text":"Гданьск","region":"Гданьск","date_precision":"unknown","date_approx":false,"url":"https://www.wikidata.org/wiki/Q9285177","image_url":"http://commons.wikimedia.org/wiki/Special:FilePath/Hala%20Trargowa-Kupcy%20Dominika%C5%84scy.jpg","source":"Викиданные","source_id":"Q9285177","license":"CC0 (Викиданные)","confidence":"ok"}},{"type":"Feature","id":"fairs:4b34ee6c818e","geometry":{"type":"Point","coordinates":[22.266111,60.449722]},"properties":{"uid":"fairs:4b34ee6c818e","layer":"fairs","layer_title":"Ярмарки и торги","group":"economy","title":"Turku Market Hall","category":"крытый рынок","place_text":"Турку","region":"Турку","year_from":1896,"year_to":1960,"date_precision":"part","date_approx":true,"period_raw":"с 1896","url":"https://www.wikidata.org/wiki/Q10726161","image_url":"http://commons.wikimedia.org/wiki/Special:FilePath/Turku%20Markthalle%20%281896%29.JPG","source":"Викиданные","source_id":"Q10726161","license":"CC0 (Викиданные)","confidence":"ok"}},{"type":"Feature","id":"fairs:e0ac84b6df5f","geometry":{"type":"Point","coordinates":[25.2858,54.6739]},"properties":{"uid":"fairs:e0ac84b6df5f","layer":"fairs","layer_title":"Ярмарки и торги","group":"economy","title":"рынок «Гале»","category":"рынок","place_text":"Вильнюс","region":"Вильнюс","date_precision":"unknown","date_approx":false,"url":"https://www.wikidata.org/wiki/Q11264737","image_url":"http://commons.wikimedia.org/wiki/Special:FilePath/Hales%20Market%20-%20panoramio.jpg","source":"Викиданные","source_id":"Q11264737","license":"CC0 (Викиданные)","confidence":"ok"}},{"type":"Feature","id":"fairs:772290c22243","geometry":{"type":"Point","coordinates":[18.951389,50.300917]},"properties":{"uid":"fairs:772290c22243","layer":"fairs","layer_title":"Ярмарки и торги","group":"economy","title":"Market hall in Chorzów","category":"крытый рынок","place_text":"Хожув","region":"Хожув","year_from":1905,"year_to":1960,"date_precision":"part","date_approx":true,"period_raw":"с 1905","url":"https://www.wikidata.org/wiki/Q11708405","image_url":"http://commons.wikimedia.org/wiki/Special:FilePath/Chorzow%20Katowicka%20111.jpg","source":"Викиданные","source_id":"Q11708405","license":"CC0 (Викиданные)","confidence":"ok"}},{"type":"Feature","id":"fairs:9b06087d1a88","geometry":{"type":"Point","coordinates":[18.00258,53.12137]},"properties":{"uid":"fairs:9b06087d1a88","layer":"fairs","layer_title":"Ярмарки и торги","group":"economy","title":"Market hall in Bydgoszcz","category":"памятник архитектурного наследия","place_text":"Быдгощ","region":"Быдгощ","date_precision":"unknown","date_approx":false,"url":"https://www.wikidata.org/wiki/Q11780214","image_url":"http://commons.wikimedia.org/wiki/Special:FilePath/Bdg%20halatargowa%208%2007-2013.jpg","source":"Викиданные","source_id":"Q11780214","license":"CC0 (Викиданные)","confidence":"ok"}},{"type":"Feature","id":"fairs:76982525c77e","geometry":{"type":"Point","coordinates":[26.945972,60.466444]},"properties":{"uid":"fairs:76982525c77e","layer":"fairs","layer_title":"Ярмарки и торги","group":"economy","title":"Kotkan kauppahalli","category":"крытый рынок","place_text":"Котка","region":"Котка","date_precision":"unknown","date_approx":false,"url":"https://www.wikidata.org/wiki/Q11872858","source":"Викиданные","source_id":"Q11872858","license":"CC0 (Викиданные)","confidence":"ok"}},{"type":"Feature","id":"fairs:bcbc49468026","geometry":{"type":"Point","coordinates":[25.464167,65.013056]},"properties":{"uid":"fairs:bcbc49468026","layer":"fairs","layer_title":"Ярмарки и торги","group":"economy","title":"Oulu Market Hall","category":"крытый рынок","place_text":"Оулу","region":"Оулу","year_from":1901,"year_to":1960,"date_precision":"part","date_approx":true,"period_raw":"с 1901","url":"https://www.wikidata.org/wiki/Q11886075","image_url":"http://commons.wikimedia.org/wiki/Special:FilePath/Oulun-kauppahalli-2010.JPG","source":"Викиданные","source_id":"Q11886075","license":"CC0 (Викиданные)","confidence":"ok"}},{"type":"Feature","id":"fairs:e6fd50fe09df","geometry":{"type":"Point","coordinates":[21.7979,61.4857]},"properties":{"uid":"fairs:e6fd50fe09df","layer":"fairs","layer_title":"Ярмарки и торги","group":"economy","title":"Pori Market Hall","category":"крытый рынок","place_text":"Пори","region":"Пори","year_from":1927,"year_to":1960,"date_precision":"part","date_approx":true,"period_raw":"с 1927","url":"https://www.wikidata.org/wiki/Q11888673","image_url":"http://commons.wikimedia.org/wiki/Special:FilePath/Porin%20kauppahalli%20Isolinnankatu%202.jpg","source":"Викиданные","source_id":"Q11888673","license":"CC0 (Викиданные)","confidence":"ok"}},{"type":"Feature","id":"fairs:a03f7ce8c508","geometry":{"type":"Point","coordinates":[24.683657,59.388692]},"properties":{"uid":"fairs:a03f7ce8c508","layer":"fairs","layer_title":"Ярмарки и торги","group":"economy","title":"Nõmme turuhoone","category":"крытый рынок","place_text":"Таллин","region":"Таллин","date_precision":"unknown","date_approx":false,"url":"https://www.wikidata.org/wiki/Q12371259","source":"Викиданные","source_id":"Q12371259","license":"CC0 (Викиданные)","confidence":"ok"}},{"type":"Feature","id":"fairs:5ca1855d2f50","geometry":{"type":"Point","coordinates":[26.728508,58.378743]},"properties":{"uid":"fairs:5ca1855d2f50","layer":"fairs","layer_title":"Ярмарки и торги","group":"economy","title":"Tartu turuhoone","category":"крытый рынок","place_text":"Тарту","region":"Тарту","date_precision":"unknown","date_approx":false,"url":"https://www.wikidata.org/wiki/Q12376497","image_url":"http://commons.wikimedia.org/wiki/Special:FilePath/6995TartuTuruhoone.jpg","source":"Викиданные","source_id":"Q12376497","license":"CC0 (Викиданные)","confidence":"ok"}},{"type":"Feature","id":"fairs:df364bbb2372","geometry":{"type":"Point","coordinates":[27.555672,53.904175]},"properties":{"uid":"fairs:df364bbb2372","layer":"fairs","layer_title":"Ярмарки и торги","group":"economy","title":"Гостиный двор (Минск)","category":"гостиный двор","place_text":"Минск","region":"Минск","year_from":1569,"year_to":1960,"date_precision":"part","date_approx":true,"period_raw":"с 1569","url":"https://ru.wikipedia.org/wiki/%D0%93%D0%BE%D1%81%D1%82%D0%B8%D0%BD%D1%8B%D0%B9_%D0%B4%D0%B2%D0%BE%D1%80_(%D0%9C%D0%B8%D0%BD%D1%81%D0%BA)","image_url":"http://commons.wikimedia.org/wiki/Special:FilePath/Ha%C5%9Bciny%20dvor%20%28Miensk%29.JPG","source":"Викиданные","source_id":"Q12859205","license":"CC0 (Викиданные)","confidence":"ok"}},{"type":"Feature","id":"fairs:3a127674057a","geometry":{"type":"Point","coordinates":[27.556039,53.904703]},"properties":{"uid":"fairs:3a127674057a","layer":"fairs","layer_title":"Ярмарки и торги","group":"economy","title":"Малы гасціны двор","category":"гостиный двор","place_text":"Минск","region":"Минск","date_precision":"unknown","date_approx":false,"url":"https://www.wikidata.org/wiki/Q13031379","image_url":"http://commons.wikimedia.org/wiki/Special:FilePath/Miensk%2C%20Vysoki%20Rynak-Vialikaja%20Bernardynskaja.%20%D0%9C%D0%B5%D0%BD%D1%81%D0%BA%2C%20%D0%92%D1%8B%D1%81%D0%BE%D0%BA%D1%96%20%D0%A0%D1%8B%D0%BD%D0%B0%D0%BA-%D0%92%D1%8F%D0%BB%D1%96%D0%BA%D0%B0%D1%8F%20%D0%91%D1%8D%D1%80%D0%BD%D0%B0%D1%80%D0%B4%D1%8B%D0%BD%D1%81%D0%BA%D0%B0%D1%8F%20%281914%29.jpg","source":"Викиданные","source_id":"Q13031379","license":"CC0 (Викиданные)","confidence":"ok"}},{"type":"Feature","id":"fairs:31ed0f334c7a","geometry":{"type":"Point","coordinates":[23.758734,61.49704]},"properties":{"uid":"fairs:31ed0f334c7a","layer":"fairs","layer_title":"Ярмарки и торги","group":"economy","title":"Tampere Market Hall","category":"крытый рынок","place_text":"Тампере","region":"Тампере","year_from":1899,"year_to":1960,"date_precision":"part","date_approx":true,"period_raw":"с 1899","url":"https://www.wikidata.org/wiki/Q15055323","image_url":"http://commons.wikimedia.org/wiki/Special:FilePath/Tampere%20market%20hall.jpg","source":"Викиданные","source_id":"Q15055323","license":"CC0 (Викиданные)","confidence":"ok"}},{"type":"Feature","id":"fairs:cc5c10af37b1","geometry":{"type":"Point","coordinates":[27.6786,62.8919]},"properties":{"uid":"fairs:cc5c10af37b1","layer":"fairs","layer_title":"Ярмарки и торги","group":"economy","title":"Здание рынка в Куопио","category":"крытый рынок","place_text":"Куопио","region":"Куопио","year_from":1902,"year_to":1960,"date_precision":"part","date_approx":true,"period_raw":"с 1902","url":"https://www.wikidata.org/wiki/Q15730763","image_url":"http://commons.wikimedia.org/wiki/Special:FilePath/Kuopio%20Market%20Hall%202020.jpg","source":"Викиданные","source_id":"Q15730763","license":"CC0 (Викиданные)","confidence":"ok"}},{"type":"Feature","id":"fairs:126796564471","geometry":{"type":"Point","coordinates":[22.0818,53.1794]},"properties":{"uid":"fairs:126796564471","layer":"fairs","layer_title":"Ярмарки и торги","group":"economy","title":"Hala Targowa w Łomży","category":"крытый рынок","place_text":"Ломжа","region":"Ломжа","date_precision":"unknown","date_approx":false,"url":"https://www.wikidata.org/wiki/Q16556795","image_url":"http://commons.wikimedia.org/wiki/Special:FilePath/Hala%20Targowa%20w%20%C5%81om%C5%BCy.jpg","source":"Викиданные","source_id":"Q16556795","license":"CC0 (Викиданные)","confidence":"ok"}},{"type":"Feature","id":"fairs:f64c8f719d0a","geometry":{"type":"Point","coordinates":[26.725036,58.379453]},"properties":{"uid":"fairs:f64c8f719d0a","layer":"fairs","layer_title":"Ярмарки и торги","group":"economy","title":"Тартуский гостиный двор","category":"крытый рынок","place_text":"Тарту","region":"Тарту","date_precision":"unknown","date_approx":false,"url":"https://ru.wikipedia.org/wiki/%D0%A2%D0%B0%D1%80%D1%82%D1%83%D1%81%D0%BA%D0%B8%D0%B9_%D0%B3%D0%BE%D1%81%D1%82%D0%B8%D0%BD%D1%8B%D0%B9_%D0%B4%D0%B2%D0%BE%D1%80","image_url":"http://commons.wikimedia.org/wiki/Special:FilePath/Tartu%20Kaubahoov%20u.1907.jpg","source":"Викиданные","source_id":"Q18624987","license":"CC0 (Викиданные)","confidence":"ok"}},{"type":"Feature","id":"fairs:f5c5a7365645","geometry":{"type":"Point","coordinates":[24.948333,60.165278]},"properties":{"uid":"fairs:f5c5a7365645","layer":"fairs","layer_title":"Ярмарки и торги","group":"economy","title":"Kaartinhalli Market Hall","category":"крытый рынок","place_text":"Хельсинки","region":"Хельсинки","year_from":1906,"year_to":1958,"date_precision":"year","date_approx":false,"period_raw":"1906–1958","url":"https://www.wikidata.org/wiki/Q18659681","image_url":"http://commons.wikimedia.org/wiki/Special:FilePath/I.K.%20Inha%2C%20Helsinki%20d2005%20132%20788%20%2816345118866%29.jpg","source":"Викиданные","source_id":"Q18659681","license":"CC0 (Викиданные)","confidence":"ok"}},{"type":"Feature","id":"fairs:9b24bc59049b","geometry":{"type":"Point","coordinates":[28.736872,60.71414]},"properties":{"uid":"fairs:9b24bc59049b","layer":"fairs","layer_title":"Ярмарки и торги","group":"economy","title":"Выборгский рынок","category":"рынок","place_text":"Выборг","region":"Выборг","year_from":1906,"year_to":1960,"date_precision":"part","date_approx":true,"period_raw":"с 1906","url":"https://ru.wikipedia.org/wiki/%D0%92%D1%8B%D0%B1%D0%BE%D1%80%D0%B3%D1%81%D0%BA%D0%B8%D0%B9_%D1%80%D1%8B%D0%BD%D0%BE%D0%BA","image_url":"http://commons.wikimedia.org/wiki/Special:FilePath/Vyborg%20MarketHall%20006%209067.jpg","source":"Викиданные","source_id":"Q18662846","license":"CC0 (Викиданные)","confidence":"ok"}},{"type":"Feature","id":"fairs:1022e21011da","geometry":{"type":"Point","coordinates":[26.363159,59.347915]},"properties":{"uid":"fairs:1022e21011da","layer":"fairs","layer_title":"Ярмарки и торги","group":"economy","title":"Rakvere market building","category":"крытый рынок","place_text":"Раквере","region":"Раквере","date_precision":"unknown","date_approx":false,"url":"https://www.wikidata.org/wiki/Q19364226","image_url":"http://commons.wikimedia.org/wiki/Special:FilePath/Rakvere%20turuhoone.jpg","source":"Викиданные","source_id":"Q19364226","license":"CC0 (Викиданные)","confidence":"ok"}},{"type":"Feature","id":"fairs:eb388f2596cc","geometry":{"type":"Point","coordinates":[24.072222,56.935833]},"properties":{"uid":"fairs:eb388f2596cc","layer":"fairs","layer_title":"Ярмарки и торги","group":"economy","title":"Агенскалнский рынок","category":"крытый рынок","place_text":"Земгальское предместье","region":"Земгальское предместье","year_from":1914,"year_to":1960,"date_precision":"part","date_approx":true,"period_raw":"с 1914","url":"https://ru.wikipedia.org/wiki/%D0%90%D0%B3%D0%B5%D0%BD%D1%81%D0%BA%D0%B0%D0%BB%D0%BD%D1%81%D0%BA%D0%B8%D0%B9_%D1%80%D1%8B%D0%BD%D0%BE%D0%BA","image_url":"http://commons.wikimedia.org/wiki/Special:FilePath/Nomet%C5%86u%20iela%2064-7.JPG","source":"Викиданные","source_id":"Q25389520","license":"CC0 (Викиданные)","confidence":"ok"}},{"type":"Feature","id":"fairs:58d09cf663a0","geometry":{"type":"Point","coordinates":[22.484131,58.253031]},"properties":{"uid":"fairs:58d09cf663a0","layer":"fairs","layer_title":"Ярмарки и торги","group":"economy","title":"Курэссаарэскі гасціны двор","category":"гостиный двор","place_text":"Сааремаа","region":"Сааремаа","date_precision":"unknown","date_approx":false,"url":"https://www.wikidata.org/wiki/Q25507769","source":"Викиданные","source_id":"Q25507769","license":"CC0 (Викиданные)","confidence":"ok"}},{"type":"Feature","id":"fairs:bc6e3166d098","geometry":{"type":"Point","coordinates":[21.154333,51.403722]},"properties":{"uid":"fairs:bc6e3166d098","layer":"fairs","layer_title":"Ярмарки и торги","group":"economy","title":"Hala targowa w Radomiu","category":"крытый рынок","place_text":"Радом","region":"Радом","date_precision":"unknown","date_approx":false,"url":"https://www.wikidata.org/wiki/Q28675569","image_url":"http://commons.wikimedia.org/wiki/Special:FilePath/Market%20Hall%2C%20Radom%2C%20Poland%201917.jpg","source":"Викиданные","source_id":"Q28675569","license":"CC0 (Викиданные)","confidence":"ok"}},{"type":"Feature","id":"fairs:e304b72bbc78","geometry":{"type":"Point","coordinates":[40.099666,47.409688]},"properties":{"uid":"fairs:e304b72bbc78","layer":"fairs","layer_title":"Ярмарки и торги","group":"economy","title":"Гостиный двор (Новочеркасск)","category":"памятник архитектуры","place_text":"Новочеркасск","region":"Новочеркасск","year_from":1805,"year_to":1960,"date_precision":"part","date_approx":true,"period_raw":"с 1805","url":"https://ru.wikipedia.org/wiki/%D0%93%D0%BE%D1%81%D1%82%D0%B8%D0%BD%D1%8B%D0%B9_%D0%B4%D0%B2%D0%BE%D1%80_(%D0%9D%D0%BE%D0%B2%D0%BE%D1%87%D0%B5%D1%80%D0%BA%D0%B0%D1%81%D1%81%D0%BA)","source":"Викиданные","source_id":"Q29370815","license":"CC0 (Викиданные)","confidence":"ok"}},{"type":"Feature","id":"fairs:69b5a6354b4d","geometry":{"type":"Point","coordinates":[22.272028,52.166811]},"properties":{"uid":"fairs:69b5a6354b4d","layer":"fairs","layer_title":"Ярмарки и торги","group":"economy","title":"Market hall in Siedlce","category":"крытый рынок","place_text":"Седльце","region":"Седльце","year_from":1908,"year_to":1960,"date_precision":"part","date_approx":true,"period_raw":"с 1908","url":"https://www.wikidata.org/wiki/Q30074292","image_url":"http://commons.wikimedia.org/wiki/Special:FilePath/Siedlce%20Hala%20targowa%202012%20micbor.JPG","source":"Викиданные","source_id":"Q30074292","license":"CC0 (Викиданные)","confidence":"ok"}},{"type":"Feature","id":"fairs:7de19cf20cb4","geometry":{"type":"Point","coordinates":[22.90025,51.641472]},"properties":{"uid":"fairs:7de19cf20cb4","layer":"fairs","layer_title":"Ярмарки и торги","group":"economy","title":"Hala targowa","category":"крытый рынок","place_text":"Парчев","region":"Парчев","year_from":1938,"year_to":1960,"date_precision":"part","date_approx":true,"period_raw":"с 1938","url":"https://www.wikidata.org/wiki/Q30102234","source":"Викиданные","source_id":"Q30102234","license":"CC0 (Викиданные)","confidence":"ok"}},{"type":"Feature","id":"fairs:301d0ac01deb","geometry":{"type":"Point","coordinates":[19.944935,50.0517]},"properties":{"uid":"fairs:301d0ac01deb","layer":"fairs","layer_title":"Ярмарки и торги","group":"economy","title":"4b New Square in Kraków","category":"ротонда","place_text":"Краков","region":"Краков","year_from":1900,"year_to":1960,"date_precision":"part","date_approx":true,"period_raw":"с 1900","url":"https://www.wikidata.org/wiki/Q30170532","image_url":"http://commons.wikimedia.org/wiki/Special:FilePath/PlacNowy-Okr%C4%85glak-POL%2C%20Krak%C3%B3w.jpg","source":"Викиданные","source_id":"Q30170532","license":"CC0 (Викиданные)","confidence":"ok"}},{"type":"Feature","id":"fairs:56fe07425e2c","geometry":{"type":"Point","coordinates":[20.9995,52.239167]},"properties":{"uid":"fairs:56fe07425e2c","layer":"fairs","layer_title":"Ярмарки и торги","group":"economy","title":"East Hall (Hale Mirowskie)","category":"крытый рынок","place_text":"Средместье","region":"Средместье","year_from":1901,"year_to":1960,"date_precision":"part","date_approx":true,"period_raw":"с 1901","url":"https://www.wikidata.org/wiki/Q33545766","image_url":"http://commons.wikimedia.org/wiki/Special:FilePath/Mir30%20DSC0256.JPG","source":"Викиданные","source_id":"Q33545766","license":"CC0 (Викиданные)","confidence":"ok"}},{"type":"Feature","id":"fairs:9f46ff0b75e9","geometry":{"type":"Point","coordinates":[61.895278,56.416944]},"properties":{"uid":"fairs:9f46ff0b75e9","layer":"fairs","layer_title":"Ярмарки и торги","group":"economy","title":"Гостиный двор (Каменск-Уральский)","category":"памятник архитектуры","place_text":"Каменск-Уральский","region":"Каменск-Уральский","year_from":1820,"year_to":1960,"date_precision":"part","date_approx":true,"period_raw":"с 1820","url":"https://ru.wikipedia.org/wiki/%D0%93%D0%BE%D1%81%D1%82%D0%B8%D0%BD%D1%8B%D0%B9_%D0%B4%D0%B2%D0%BE%D1%80_(%D0%9A%D0%B0%D0%BC%D0%B5%D0%BD%D1%81%D0%BA-%D0%A3%D1%80%D0%B0%D0%BB%D1%8C%D1%81%D0%BA%D0%B8%D0%B9)","image_url":"http://commons.wikimedia.org/wiki/Special:FilePath/Views%20of%20Kamensk-Uralsky%20%28Historical%20center%29%20%2893%29.jpg","source":"Викиданные","source_id":"Q55400381","license":"CC0 (Викиданные)","confidence":"ok"}},{"type":"Feature","id":"fairs:bf5e7b352386","geometry":{"type":"Point","coordinates":[30.405961,59.719531]},"properties":{"uid":"fairs:bf5e7b352386","layer":"fairs","layer_title":"Ярмарки и торги","group":"economy","title":"Гостиный двор","category":"гостиный двор","place_text":"Пушкин","region":"Пушкин","year_from":1866,"year_to":1960,"date_precision":"part","date_approx":true,"period_raw":"с 1866","url":"https://ru.wikipedia.org/wiki/%D0%93%D0%BE%D1%81%D1%82%D0%B8%D0%BD%D1%8B%D0%B9_%D0%B4%D0%B2%D0%BE%D1%80_(%D0%9F%D1%83%D1%88%D0%BA%D0%B8%D0%BD)","image_url":"http://commons.wikimedia.org/wiki/Special:FilePath/679.%20Pushkin.%20Gostiny%20Dvor.jpg","source":"Викиданные","source_id":"Q55436725","license":"CC0 (Викиданные)","confidence":"ok"}},{"type":"Feature","id":"fairs:bbdddc4a1d41","geometry":{"type":"Point","coordinates":[19.46122,51.74058]},"properties":{"uid":"fairs:bbdddc4a1d41","layer":"fairs","layer_title":"Ярмарки и торги","group":"economy","title":"Górniak market","category":"крытый рынок","place_text":"Górniak","region":"Górniak","year_from":1934,"year_to":1960,"date_precision":"part","date_approx":true,"period_raw":"с 1934","url":"https://www.wikidata.org/wiki/Q106462606","image_url":"http://commons.wikimedia.org/wiki/Special:FilePath/Hala%20G%C3%B3rniak%20w%20%C5%81odzi%20%28napis%29.JPG","source":"Викиданные","source_id":"Q106462606","license":"CC0 (Викиданные)","confidence":"ok"}},{"type":"Feature","id":"fairs:16d3495037e8","geometry":{"type":"Point","coordinates":[49.109192,55.795546]},"properties":{"uid":"fairs:16d3495037e8","layer":"fairs","layer_title":"Ярмарки и торги","group":"economy","title":"Гостиный двор, Казань","category":"памятник архитектуры","place_text":"Казань","region":"Казань","year_from":1770,"year_to":1960,"date_precision":"part","date_approx":true,"period_raw":"с 1770","url":"https://ru.wikipedia.org/wiki/%D0%93%D0%BE%D1%81%D1%82%D0%B8%D0%BD%D1%8B%D0%B9_%D0%B4%D0%B2%D0%BE%D1%80_(%D0%9A%D0%B0%D0%B7%D0%B0%D0%BD%D1%8C)","image_url":"http://commons.wikimedia.org/wiki/Special:FilePath/Kazan%20Gostiny.jpg","source":"Викиданные","source_id":"Q106807314","license":"CC0 (Викиданные)","confidence":"ok"}},{"type":"Feature","id":"fairs:d8093eef0045","geometry":{"type":"Point","coordinates":[37.297613,53.710515]},"properties":{"uid":"fairs:d8093eef0045","layer":"fairs","layer_title":"Ярмарки и торги","group":"economy","title":"Гостиный двор (Плавск)","category":"памятник архитектуры","place_text":"Плавск","region":"Плавск","year_from":1841,"year_to":1960,"date_precision":"part","date_approx":true,"period_raw":"с 1841","url":"https://www.wikidata.org/wiki/Q109515287","image_url":"http://commons.wikimedia.org/wiki/Special:FilePath/%D0%9F%D0%BB%D0%B0%D0%B2%D1%81%D0%BA%2C%20%D0%A1%D0%B2%D0%BE%D0%B1%D0%BE%D0%B4%D1%8B%2C%2016-2%20%28%D0%B3%D0%BE%D1%81%D1%82%D0%B8%D0%BD%D1%8B%D0%B9%20%D0%B4%D0%B2%D0%BE%D1%80%29%20%282%29.jpg","source":"Викиданные","source_id":"Q109515287","license":"CC0 (Викиданные)","confidence":"ok"}},{"type":"Feature","id":"fairs:cc9b3ae4ce78","geometry":{"type":"Point","coordinates":[18.861833,50.444944]},"properties":{"uid":"fairs:cc9b3ae4ce78","layer":"fairs","layer_title":"Ярмарки и торги","group":"economy","title":"Market hall in Tarnowskie Góry","category":"крытый рынок","place_text":"Тарновске-Гуры","region":"Тарновске-Гуры","year_from":1997,"year_to":1997,"date_precision":"part","date_approx":true,"period_raw":"с 1997","url":"https://www.wikidata.org/wiki/Q113958083","image_url":"http://commons.wikimedia.org/wiki/Special:FilePath/Tarnowskie%20G%C3%B3ry%20C.H.U.%20Hala.jpg","source":"Викиданные","source_id":"Q113958083","license":"CC0 (Викиданные)","confidence":"ok"}},{"type":"Feature","id":"fairs:40d72ae88509","geometry":{"type":"Point","coordinates":[27.189,63.557167]},"properties":{"uid":"fairs:40d72ae88509","layer":"fairs","layer_title":"Ярмарки и торги","group":"economy","title":"Iisalmi Market Hall","category":"крытый рынок","place_text":"Ийсалми","region":"Ийсалми","year_from":1926,"year_to":1960,"date_precision":"part","date_approx":true,"period_raw":"с 1926","url":"https://www.wikidata.org/wiki/Q120030204","image_url":"http://commons.wikimedia.org/wiki/Special:FilePath/Iisalmi%20Market%20Hall%2020230621%2002.jpg","source":"Викиданные","source_id":"Q120030204","license":"CC0 (Викиданные)","confidence":"ok"}},{"type":"Feature","id":"fairs:6ad551454f98","geometry":{"type":"Point","coordinates":[21.1543,51.40373]},"properties":{"uid":"fairs:6ad551454f98","layer":"fairs","layer_title":"Ярмарки и торги","group":"economy","title":"dom handlowy Senior, d. hala targowa, Plac Jagielloński 8 w Radomiu","category":"крытый рынок","place_text":"Радом","region":"Радом","date_precision":"unknown","date_approx":false,"url":"https://www.wikidata.org/wiki/Q122195217","source":"Викиданные","source_id":"Q122195217","license":"CC0 (Викиданные)","confidence":"ok"}},{"type":"Feature","id":"fairs:de7535e8a3b5","geometry":{"type":"Point","coordinates":[22.81821,49.9518]},"properties":{"uid":"fairs:de7535e8a3b5","layer":"fairs","layer_title":"Ярмарки и торги","group":"economy","title":"hala targowa, Rynek 1 w Radymnie","category":"крытый рынок","place_text":"Радымно","region":"Радымно","date_precision":"unknown","date_approx":false,"url":"https://www.wikidata.org/wiki/Q122262082","image_url":"http://commons.wikimedia.org/wiki/Special:FilePath/13%20Radymno4.jpg","source":"Викиданные","source_id":"Q122262082","license":"CC0 (Викиданные)","confidence":"ok"}},{"type":"Feature","id":"fairs:1b342920715d","geometry":{"type":"Point","coordinates":[22.08192,53.1794]},"properties":{"uid":"fairs:1b342920715d","layer":"fairs","layer_title":"Ярмарки и торги","group":"economy","title":"hala targowa, Plac Stary Rynek 6, Łomża","category":"крытый рынок","place_text":"Ломжа","region":"Ломжа","date_precision":"unknown","date_approx":false,"url":"https://www.wikidata.org/wiki/Q122262448","source":"Викиданные","source_id":"Q122262448","license":"CC0 (Викиданные)","confidence":"ok"}},{"type":"Feature","id":"fairs:01ac8462281d","geometry":{"type":"Point","coordinates":[28.840316,45.342927]},"properties":{"uid":"fairs:01ac8462281d","layer":"fairs","layer_title":"Ярмарки и торги","group":"economy","title":"Izmail Market Hall","category":"крытый рынок","place_text":"Измаил","region":"Измаил","date_precision":"unknown","date_approx":false,"url":"https://www.wikidata.org/wiki/Q122298664","image_url":"http://commons.wikimedia.org/wiki/Special:FilePath/%D0%A6%D0%B5%D0%BD%D1%82%D1%80%D0%B0%D0%BB%D1%8C%D0%BD%D1%8B%D0%B9%20%D0%A0%D1%8B%D0%BD%D0%BE%D0%BA%2050%D0%B5%20%D0%B3%D0%B3.%20%D0%98%D0%B7%D0%BC%D0%B0%D0%B8%D0%BB.jpg","source":"Викиданные","source_id":"Q122298664","license":"CC0 (Викиданные)","confidence":"ok"}},{"type":"Feature","id":"fairs:b2919108be3f","geometry":{"type":"Point","coordinates":[25.562477,48.447276]},"properties":{"uid":"fairs:b2919108be3f","layer":"fairs","layer_title":"Ярмарки и торги","group":"economy","title":"Covered market in Sniatyn","category":"крытый рынок","place_text":"Снятын","region":"Снятын","date_precision":"unknown","date_approx":false,"url":"https://www.wikidata.org/wiki/Q122330065","image_url":"http://commons.wikimedia.org/wiki/Special:FilePath/%D0%9C%D1%83%D1%80%D0%BE%D0%B2%D0%B0%D0%BD%D0%B8%D0%B9%20%D1%80%D0%B8%D0%BD%D0%BE%D0%BA%2C%20%D0%B2%D1%83%D0%BB%D0%B8%D1%86%D1%8F%20%D0%A8%D0%B5%D0%B2%D1%87%D0%B5%D0%BD%D0%BA%D0%B0%2C%20%D0%A1%D0%BD%D1%8F%D1%82%D0%B8%D0%BD.JPG","source":"Викиданные","source_id":"Q122330065","license":"CC0 (Викиданные)","confidence":"ok"}},{"type":"Feature","id":"fairs:212eb5adad41","geometry":{"type":"Point","coordinates":[69.235074,41.326798]},"properties":{"uid":"fairs:212eb5adad41","layer":"fairs","layer_title":"Ярмарки и торги","group":"economy","title":"Купол базара Чорсу","category":"купол","place_text":"Шайхантахурский район","region":"Шайхантахурский район","date_precision":"unknown","date_approx":false,"url":"https://www.wikidata.org/wiki/Q122676451","image_url":"http://commons.wikimedia.org/wiki/Special:FilePath/20230606%20Tashkent163.jpg","source":"Викиданные","source_id":"Q122676451","license":"CC0 (Викиданные)","confidence":"ok"}},{"type":"Feature","id":"fairs:91c664329bbe","geometry":{"type":"Point","coordinates":[19.949306,50.058056]},"properties":{"uid":"fairs:91c664329bbe","layer":"fairs","layer_title":"Ярмарки и торги","group":"economy","title":"Market Hall in Kraków","category":"крытый рынок","place_text":"Краков","region":"Краков","date_precision":"unknown","date_approx":false,"url":"https://www.wikidata.org/wiki/Q124285094","image_url":"http://commons.wikimedia.org/wiki/Special:FilePath/Market%20Hall%2C%201937%20design.%20Juliusz%20Dumnicki%2C%203%20Daszy%C5%84skiego%20Alley%2C%20Grzeg%C3%B3rzki%2C%20Krak%C3%B3w%2C%20Poland.jpg","source":"Викиданные","source_id":"Q124285094","license":"CC0 (Викиданные)","confidence":"ok"}}]}