{"type":"FeatureCollection","name":"Восстания и волнения","crs":{"type":"name","properties":{"name":"urn:ogc:def:crs:OGC:1.3/CRS84"}},"features":[{"type":"Feature","id":"uprisings:6119dcd81001","geometry":{"type":"Point","coordinates":[29.733611,60.0125]},"properties":{"uid":"uprisings:6119dcd81001","layer":"uprisings","layer_title":"Восстания и волнения","group":"hardship","title":"Кронштадтское восстание","category":"восстание","year_from":1921,"year_to":1921,"date_precision":"year","date_approx":false,"period_raw":"1921","summary":"вооружённое антибольшевистское восстание","url":"https://ru.wikipedia.org/wiki/%D0%9A%D1%80%D0%BE%D0%BD%D1%88%D1%82%D0%B0%D0%B4%D1%82%D1%81%D0%BA%D0%BE%D0%B5_%D0%B2%D0%BE%D1%81%D1%81%D1%82%D0%B0%D0%BD%D0%B8%D0%B5_(1921)","image_url":"http://commons.wikimedia.org/wiki/Special:FilePath/Kronstadt%20attack.JPG","source":"Викиданные","source_id":"Q208300","license":"CC0 (Викиданные)","confidence":"ok"}},{"type":"Feature","id":"uprisings:55253d9e9cd1","geometry":{"type":"Point","coordinates":[46.360556,40.682778]},"properties":{"uid":"uprisings:55253d9e9cd1","layer":"uprisings","layer_title":"Восстания и волнения","group":"hardship","title":"Гянджинский мятеж","category":"государственный переворот","year_from":1920,"year_to":1920,"date_precision":"year","date_approx":false,"period_raw":"1920","summary":"вооружённое выступление с целью свержения Советской власти в Азербайджане","url":"https://ru.wikipedia.org/wiki/%D0%93%D1%8F%D0%BD%D0%B4%D0%B6%D0%B8%D0%BD%D1%81%D0%BA%D0%B8%D0%B9_%D0%BC%D1%8F%D1%82%D0%B5%D0%B6_(1920)","source":"Викиданные","source_id":"Q386955","license":"CC0 (Викиданные)","confidence":"place_level"}},{"type":"Feature","id":"uprisings:230e564f3357","geometry":{"type":"Point","coordinates":[114.583611,58.185278]},"properties":{"uid":"uprisings:230e564f3357","layer":"uprisings","layer_title":"Восстания и волнения","group":"hardship","title":"Ленский расстрел","category":"забастовка","year_from":1912,"year_to":1912,"date_precision":"year","date_approx":false,"period_raw":"1912","summary":"трагические события 4 (17) апреля 1912 года на приисках Ленского золотопромышленного товарищества","url":"https://ru.wikipedia.org/wiki/%D0%9B%D0%B5%D0%BD%D1%81%D0%BA%D0%B8%D0%B9_%D1%80%D0%B0%D1%81%D1%81%D1%82%D1%80%D0%B5%D0%BB","image_url":"http://commons.wikimedia.org/wiki/Special:FilePath/Lena%2017%2004%201912.jpg","source":"Викиданные","source_id":"Q578858","license":"CC0 (Викиданные)","confidence":"ok"}},{"type":"Feature","id":"uprisings:6978872ad1fc","geometry":{"type":"Point","coordinates":[29.325,58.883333]},"properties":{"uid":"uprisings:6978872ad1fc","layer":"uprisings","layer_title":"Восстания и волнения","group":"hardship","title":"Выступление Керенского — Краснова","category":"восстание","place_text":"Санкт-Петербургская губерния","region":"Санкт-Петербургская губерния","year_from":1917,"year_to":1917,"date_precision":"year","date_approx":false,"period_raw":"1917","summary":"эпизод Гражданской войны - поход казачьих частей 3-го кавалерийского корпуса под командованием Керенского","url":"https://ru.wikipedia.org/wiki/%D0%92%D1%8B%D1%81%D1%82%D1%83%D0%BF%D0%BB%D0%B5%D0%BD%D0%B8%D0%B5_%D0%9A%D0%B5%D1%80%D0%B5%D0%BD%D1%81%D0%BA%D0%BE%D0%B3%D0%BE_%E2%80%94_%D0%9A%D1%80%D0%B0%D1%81%D0%BD%D0%BE%D0%B2%D0%B0","source":"Викиданные","source_id":"Q597026","license":"CC0 (Викиданные)","confidence":"ok"}},{"type":"Feature","id":"uprisings:86a8ff6d7d0f","geometry":{"type":"Point","coordinates":[31.27579,58.52099]},"properties":{"uid":"uprisings:86a8ff6d7d0f","layer":"uprisings","layer_title":"Восстания и волнения","group":"hardship","title":"Соляной бунт","category":"восстание","year_from":1648,"year_to":1648,"date_precision":"year","date_approx":false,"period_raw":"1648","summary":"одно из наиболее крупных городских восстаний середины XVII века в России при царе Алексее Михайловиче","url":"https://ru.wikipedia.org/wiki/%D0%A1%D0%BE%D0%BB%D1%8F%D0%BD%D0%BE%D0%B9_%D0%B1%D1%83%D0%BD%D1%82","image_url":"http://commons.wikimedia.org/wiki/Special:FilePath/Salt%20riot%20moscow%201648.jpeg","source":"Викиданные","source_id":"Q600898","license":"CC0 (Викиданные)","confidence":"place_level"}},{"type":"Feature","id":"uprisings:cf5c7843ea1a","geometry":{"type":"Point","coordinates":[19.937222,50.061389]},"properties":{"uid":"uprisings:cf5c7843ea1a","layer":"uprisings","layer_title":"Восстания и волнения","group":"hardship","title":"Краковское восстание (1846)","category":"восстание","year_from":1846,"year_to":1846,"date_precision":"year","date_approx":false,"period_raw":"1846","summary":"восстание","url":"https://ru.wikipedia.org/wiki/%D0%9A%D1%80%D0%B0%D0%BA%D0%BE%D0%B2%D1%81%D0%BA%D0%BE%D0%B5_%D0%B2%D0%BE%D1%81%D1%81%D1%82%D0%B0%D0%BD%D0%B8%D0%B5_(1846)","image_url":"http://commons.wikimedia.org/wiki/Special:FilePath/J%C3%B3zef%20Bogdan%20Dzieko%C5%84ski%20-%20%C5%9Amier%C4%87%20Edwarda%20Dembowskiego%20%28cropped%29.jpg","source":"Викиданные","source_id":"Q685372","license":"CC0 (Викиданные)","confidence":"place_level"}},{"type":"Feature","id":"uprisings:655a8a45233e","geometry":{"type":"Point","coordinates":[19.466667,51.75]},"properties":{"uid":"uprisings:655a8a45233e","layer":"uprisings","layer_title":"Восстания и волнения","group":"hardship","title":"Восстание в Лодзи","category":"восстание","year_from":1905,"year_to":1905,"date_precision":"year","date_approx":false,"period_raw":"1905","summary":"забастовка в ходе революции 1905 года","url":"https://ru.wikipedia.org/wiki/%D0%9B%D0%BE%D0%B4%D0%B7%D0%B8%D0%BD%D1%81%D0%BA%D0%BE%D0%B5_%D0%B2%D0%BE%D1%81%D1%81%D1%82%D0%B0%D0%BD%D0%B8%D0%B5","image_url":"http://commons.wikimedia.org/wiki/Special:FilePath/Pomnik%20Czynu%20Rewolucyjnego%20Lodz%201.jpg","source":"Викиданные","source_id":"Q766868","license":"CC0 (Викиданные)","confidence":"place_level"}},{"type":"Feature","id":"uprisings:62a968a35142","geometry":{"type":"Point","coordinates":[30.316667,59.95]},"properties":{"uid":"uprisings:62a968a35142","layer":"uprisings","layer_title":"Восстания и волнения","group":"hardship","title":"Июльские дни","category":"восстание","place_text":"Санкт-Петербург","region":"Санкт-Петербург","year_from":1917,"year_to":1917,"date_precision":"year","date_approx":false,"period_raw":"1917","summary":"антиправительственные выступления 3—5 (16—18) июля 1917 года в Петрограде","url":"https://ru.wikipedia.org/wiki/%D0%98%D1%8E%D0%BB%D1%8C%D1%81%D0%BA%D0%B8%D0%B5_%D0%B4%D0%BD%D0%B8","image_url":"http://commons.wikimedia.org/wiki/Special:FilePath/19170704%20Riot%20on%20Nevsky%20prosp%20Petrograd.jpg","source":"Викиданные","source_id":"Q1322251","license":"CC0 (Викиданные)","confidence":"place_level"}},{"type":"Feature","id":"uprisings:b02405b85a14","geometry":{"type":"Point","coordinates":[20.995833,52.246111]},"properties":{"uid":"uprisings:b02405b85a14","layer":"uprisings","layer_title":"Восстания и волнения","group":"hardship","title":"Восстание в Варшавском гетто","category":"мятеж","year_from":1943,"year_to":1943,"date_precision":"year","date_approx":false,"period_raw":"1943","url":"https://ru.wikipedia.org/wiki/%D0%92%D0%BE%D1%81%D1%81%D1%82%D0%B0%D0%BD%D0%B8%D0%B5_%D0%B2_%D0%92%D0%B0%D1%80%D1%88%D0%B0%D0%B2%D1%81%D0%BA%D0%BE%D0%BC_%D0%B3%D0%B5%D1%82%D1%82%D0%BE","image_url":"http://commons.wikimedia.org/wiki/Special:FilePath/Ghetto%20Uprising%20Warsaw2.jpg","source":"Викиданные","source_id":"Q160161","license":"CC0 (Викиданные)","confidence":"ok"}},{"type":"Feature","id":"uprisings:6f895050b01d","geometry":{"type":"Point","coordinates":[37.6175,55.750556]},"properties":{"uid":"uprisings:6f895050b01d","layer":"uprisings","layer_title":"Восстания и волнения","group":"hardship","title":"Восстание левых эсеров","category":"восстание","year_from":1918,"year_to":1918,"date_precision":"year","date_approx":false,"period_raw":"1918","url":"https://ru.wikipedia.org/wiki/%D0%92%D0%BE%D1%81%D1%81%D1%82%D0%B0%D0%BD%D0%B8%D0%B5_%D0%BB%D0%B5%D0%B2%D1%8B%D1%85_%D1%8D%D1%81%D0%B5%D1%80%D0%BE%D0%B2","image_url":"http://commons.wikimedia.org/wiki/Special:FilePath/5-%D1%8B%D0%B9%20%D0%A1%D1%8A%D0%B5%D0%B7%D0%B4%20%D0%A1%D0%BE%D0%B2%D0%B5%D1%82%D0%BE%D0%B2.%20%D0%98%D1%8E%D0%BB%D1%8C%201918.JPG","source":"Викиданные","source_id":"Q191745","license":"CC0 (Викиданные)","confidence":"place_level"}},{"type":"Feature","id":"uprisings:b7583e890f45","geometry":{"type":"Point","coordinates":[20.62658,50.873173]},"properties":{"uid":"uprisings:b7583e890f45","layer":"uprisings","layer_title":"Восстания и волнения","group":"hardship","title":"Погром в Кельце","category":"погром","place_text":"Кельце","region":"Кельце","year_from":1946,"year_to":1946,"date_precision":"year","date_approx":false,"period_raw":"1946","url":"https://ru.wikipedia.org/wiki/%D0%9F%D0%BE%D0%B3%D1%80%D0%BE%D0%BC_%D0%B2_%D0%9A%D0%B5%D0%BB%D1%8C%D1%86%D0%B5","image_url":"http://commons.wikimedia.org/wiki/Special:FilePath/Kielce%20planty%20plaque.jpg","source":"Викиданные","source_id":"Q236163","license":"CC0 (Викиданные)","confidence":"ok"}},{"type":"Feature","id":"uprisings:46538c851adc","geometry":{"type":"Point","coordinates":[18.616667,53.016667]},"properties":{"uid":"uprisings:46538c851adc","layer":"uprisings","layer_title":"Восстания и волнения","group":"hardship","title":"Tumult of Thorn","category":"бунт","year_from":1724,"year_to":1724,"date_precision":"year","date_approx":false,"period_raw":"1724","url":"https://www.wikidata.org/wiki/Q457509","image_url":"http://commons.wikimedia.org/wiki/Special:FilePath/Thorner%20Blutgericht.jpg","source":"Викиданные","source_id":"Q457509","license":"CC0 (Викиданные)","confidence":"place_level"}},{"type":"Feature","id":"uprisings:ba9605c9a41d","geometry":{"type":"Point","coordinates":[30.739893,46.478263]},"properties":{"uid":"uprisings:ba9605c9a41d","layer":"uprisings","layer_title":"Восстания и волнения","group":"hardship","title":"Одесский погром","category":"погром","year_from":1900,"year_to":1900,"date_precision":"year","date_approx":false,"period_raw":"1900","url":"https://ru.wikipedia.org/wiki/%D0%9E%D0%B4%D0%B5%D1%81%D1%81%D0%BA%D0%B8%D0%B9_%D0%BF%D0%BE%D0%B3%D1%80%D0%BE%D0%BC","source":"Викиданные","source_id":"Q552243","license":"CC0 (Викиданные)","confidence":"ok"}},{"type":"Feature","id":"uprisings:5574ef09a46c","geometry":{"type":"Point","coordinates":[64.083889,67.514167]},"properties":{"uid":"uprisings:5574ef09a46c","layer":"uprisings","layer_title":"Восстания и волнения","group":"hardship","title":"Воркутинское восстание","category":"бунт","year_from":1953,"year_to":1953,"date_precision":"year","date_approx":false,"period_raw":"1953","url":"https://ru.wikipedia.org/wiki/%D0%92%D0%BE%D1%80%D0%BA%D1%83%D1%82%D0%B8%D0%BD%D1%81%D0%BA%D0%BE%D0%B5_%D0%B2%D0%BE%D1%81%D1%81%D1%82%D0%B0%D0%BD%D0%B8%D0%B5","source":"Викиданные","source_id":"Q686273","license":"CC0 (Викиданные)","confidence":"ok"}},{"type":"Feature","id":"uprisings:94ad83ee0cfc","geometry":{"type":"Point","coordinates":[22.309611,53.288694]},"properties":{"uid":"uprisings:94ad83ee0cfc","layer":"uprisings","layer_title":"Восстания и волнения","group":"hardship","title":"Погром в Едвабне","category":"погром","year_from":1941,"year_to":1941,"date_precision":"year","date_approx":false,"period_raw":"1941","url":"https://ru.wikipedia.org/wiki/%D0%9F%D0%BE%D0%B3%D1%80%D0%BE%D0%BC_%D0%B2_%D0%95%D0%B4%D0%B2%D0%B0%D0%B1%D0%BD%D0%B5","image_url":"http://commons.wikimedia.org/wiki/Special:FilePath/A-438%20Mogi%C5%82a-pomnik%2C%20na%20cmentarzu%20%C5%BCydowskim%2C%201941%20Jedwabne%20B%26W.jpg","source":"Викиданные","source_id":"Q707547","license":"CC0 (Викиданные)","confidence":"ok"}},{"type":"Feature","id":"uprisings:99f86f75d3d1","geometry":{"type":"Point","coordinates":[23.594136,51.446992]},"properties":{"uid":"uprisings:99f86f75d3d1","layer":"uprisings","layer_title":"Восстания и волнения","group":"hardship","title":"восстание в Собиборе","category":"восстание","year_from":1943,"year_to":1943,"date_precision":"year","date_approx":false,"period_raw":"с 1943","url":"https://www.wikidata.org/wiki/Q760028","source":"Викиданные","source_id":"Q760028","license":"CC0 (Викиданные)","confidence":"place_level"}},{"type":"Feature","id":"uprisings:b89a801b5396","geometry":{"type":"Point","coordinates":[22.053058,52.631069]},"properties":{"uid":"uprisings:b89a801b5396","layer":"uprisings","layer_title":"Восстания и волнения","group":"hardship","title":"восстание в Треблинке","category":"восстание","year_from":1943,"year_to":1943,"date_precision":"year","date_approx":false,"period_raw":"1943","url":"https://www.wikidata.org/wiki/Q760029","source":"Викиданные","source_id":"Q760029","license":"CC0 (Викиданные)","confidence":"ok"}},{"type":"Feature","id":"uprisings:acacb199a847","geometry":{"type":"Point","coordinates":[24.106944,56.9475]},"properties":{"uid":"uprisings:acacb199a847","layer":"uprisings","layer_title":"Восстания и волнения","group":"hardship","title":"Календарные беспорядки","category":"восстание","year_from":1584,"year_to":1589,"date_precision":"year","date_approx":false,"period_raw":"1584–1589","url":"https://ru.wikipedia.org/wiki/%D0%9A%D0%B0%D0%BB%D0%B5%D0%BD%D0%B4%D0%B0%D1%80%D0%BD%D1%8B%D0%B5_%D0%B1%D0%B5%D1%81%D0%BF%D0%BE%D1%80%D1%8F%D0%B4%D0%BA%D0%B8","source":"Викиданные","source_id":"Q1240241","license":"CC0 (Викиданные)","confidence":"place_level"}},{"type":"Feature","id":"uprisings:fdcff8216f53","geometry":{"type":"Point","coordinates":[67.615,47.841111]},"properties":{"uid":"uprisings:fdcff8216f53","layer":"uprisings","layer_title":"Восстания и волнения","group":"hardship","title":"Кенгирское восстание заключённых","category":"восстание заключённых","year_from":1954,"year_to":1954,"date_precision":"year","date_approx":false,"period_raw":"1954","url":"https://ru.wikipedia.org/wiki/%D0%9A%D0%B5%D0%BD%D0%B3%D0%B8%D1%80%D1%81%D0%BA%D0%BE%D0%B5_%D0%B2%D0%BE%D1%81%D1%81%D1%82%D0%B0%D0%BD%D0%B8%D0%B5_%D0%B7%D0%B0%D0%BA%D0%BB%D1%8E%D1%87%D1%91%D0%BD%D0%BD%D1%8B%D1%85","image_url":"http://commons.wikimedia.org/wiki/Special:FilePath/Kazakhstan-Kengir%20camp.png","source":"Викиданные","source_id":"Q1738747","license":"CC0 (Викиданные)","confidence":"ok"}},{"type":"Feature","id":"uprisings:234666ef650e","geometry":{"type":"Point","coordinates":[19.937222,50.061389]},"properties":{"uid":"uprisings:234666ef650e","layer":"uprisings","layer_title":"Восстания и волнения","group":"hardship","title":"Восстание войта Альберта","category":"восстание","year_from":1311,"year_to":1312,"date_precision":"year","date_approx":false,"period_raw":"1311–1312","url":"https://ru.wikipedia.org/wiki/%D0%92%D0%BE%D1%81%D1%81%D1%82%D0%B0%D0%BD%D0%B8%D0%B5_%D0%B2%D0%BE%D0%B9%D1%82%D0%B0_%D0%90%D0%BB%D1%8C%D0%B1%D0%B5%D1%80%D1%82%D0%B0","source":"Викиданные","source_id":"Q1786353","license":"CC0 (Викиданные)","confidence":"place_level"}},{"type":"Feature","id":"uprisings:e0a9008ca5bf","geometry":{"type":"Point","coordinates":[28.8045,47.037611]},"properties":{"uid":"uprisings:e0a9008ca5bf","layer":"uprisings","layer_title":"Восстания и волнения","group":"hardship","title":"Кишинёвский погром","category":"погром","year_from":1903,"year_to":1903,"date_precision":"year","date_approx":false,"period_raw":"1903","url":"https://ru.wikipedia.org/wiki/%D0%9A%D0%B8%D1%88%D0%B8%D0%BD%D1%91%D0%B2%D1%81%D0%BA%D0%B8%D0%B9_%D0%BF%D0%BE%D0%B3%D1%80%D0%BE%D0%BC","image_url":"http://commons.wikimedia.org/wiki/Special:FilePath/After%20Kishinyov%20pogrom.jpg","source":"Викиданные","source_id":"Q1814439","license":"CC0 (Викиданные)","confidence":"ok"}},{"type":"Feature","id":"uprisings:4cf5a1d7fca6","geometry":{"type":"Point","coordinates":[19.944722,50.051667]},"properties":{"uid":"uprisings:4cf5a1d7fca6","layer":"uprisings","layer_title":"Восстания и волнения","group":"hardship","title":"Погром в Кракове","category":"погром","place_text":"Краков","region":"Краков","year_from":1945,"year_to":1945,"date_precision":"year","date_approx":false,"period_raw":"1945","url":"https://ru.wikipedia.org/wiki/%D0%9F%D0%BE%D0%B3%D1%80%D0%BE%D0%BC_%D0%B2_%D0%9A%D1%80%D0%B0%D0%BA%D0%BE%D0%B2%D0%B5","source":"Викиданные","source_id":"Q1814824","license":"CC0 (Викиданные)","confidence":"ok"}},{"type":"Feature","id":"uprisings:170c15c55e24","geometry":{"type":"Point","coordinates":[53.216667,56.85]},"properties":{"uid":"uprisings:170c15c55e24","layer":"uprisings","layer_title":"Восстания и волнения","group":"hardship","title":"Ижевско-Воткинское восстание","category":"восстание","year_from":1918,"year_to":1918,"date_precision":"year","date_approx":false,"period_raw":"1918","url":"https://ru.wikipedia.org/wiki/%D0%98%D0%B6%D0%B5%D0%B2%D1%81%D0%BA%D0%BE-%D0%92%D0%BE%D1%82%D0%BA%D0%B8%D0%BD%D1%81%D0%BA%D0%BE%D0%B5_%D0%B2%D0%BE%D1%81%D1%81%D1%82%D0%B0%D0%BD%D0%B8%D0%B5","image_url":"http://commons.wikimedia.org/wiki/Special:FilePath/Frontoviki.jpeg","source":"Викиданные","source_id":"Q2468350","license":"CC0 (Викиданные)","confidence":"place_level"}},{"type":"Feature","id":"uprisings:55f3c1e85e58","geometry":{"type":"Point","coordinates":[21.0108,52.23]},"properties":{"uid":"uprisings:55f3c1e85e58","layer":"uprisings","layer_title":"Восстания и волнения","group":"hardship","title":"Варшавская заутреня","category":"восстание","year_from":1794,"year_to":1794,"date_precision":"year","date_approx":false,"period_raw":"1794","url":"https://ru.wikipedia.org/wiki/%D0%92%D0%B0%D1%80%D1%88%D0%B0%D0%B2%D1%81%D0%BA%D0%B0%D1%8F_%D0%B7%D0%B0%D1%83%D1%82%D1%80%D0%B5%D0%BD%D1%8F","image_url":"http://commons.wikimedia.org/wiki/Special:FilePath/Warsaw%20insurrection%201794%20by%20Juliusz%20Kossak.PNG","source":"Викиданные","source_id":"Q2591793","license":"CC0 (Викиданные)","confidence":"ok"}},{"type":"Feature","id":"uprisings:b29ab6f2cece","geometry":{"type":"Point","coordinates":[25.0136,58.5953]},"properties":{"uid":"uprisings:b29ab6f2cece","layer":"uprisings","layer_title":"Восстания и волнения","group":"hardship","title":"Перводекабрьское восстание","category":"попытка государственного переворота","year_from":1924,"year_to":1924,"date_precision":"year","date_approx":false,"period_raw":"1924","url":"https://ru.wikipedia.org/wiki/%D0%9F%D0%B5%D1%80%D0%B2%D0%BE%D0%B4%D0%B5%D0%BA%D0%B0%D0%B1%D1%80%D1%8C%D1%81%D0%BA%D0%BE%D0%B5_%D0%B2%D0%BE%D1%81%D1%81%D1%82%D0%B0%D0%BD%D0%B8%D0%B5","source":"Викиданные","source_id":"Q2602809","license":"CC0 (Викиданные)","confidence":"ok"}},{"type":"Feature","id":"uprisings:413e0e1839cf","geometry":{"type":"Point","coordinates":[27.55,53.016667]},"properties":{"uid":"uprisings:413e0e1839cf","layer":"uprisings","layer_title":"Восстания и волнения","group":"hardship","title":"Слуцкое восстание","category":"восстание","year_from":1920,"year_to":1920,"date_precision":"year","date_approx":false,"period_raw":"1920","url":"https://ru.wikipedia.org/wiki/%D0%A1%D0%BB%D1%83%D1%86%D0%BA%D0%BE%D0%B5_%D0%B2%D0%BE%D1%81%D1%81%D1%82%D0%B0%D0%BD%D0%B8%D0%B5","image_url":"http://commons.wikimedia.org/wiki/Special:FilePath/Sciag%201%20Sluckaha%20palka.jpg","source":"Викиданные","source_id":"Q2632595","license":"CC0 (Викиданные)","confidence":"place_level"}},{"type":"Feature","id":"uprisings:78c1c9eb6e2a","geometry":{"type":"Point","coordinates":[24.031592,49.841952]},"properties":{"uid":"uprisings:78c1c9eb6e2a","layer":"uprisings","layer_title":"Восстания и волнения","group":"hardship","title":"Львовский погром","category":"погром","year_from":1918,"year_to":1918,"date_precision":"year","date_approx":false,"period_raw":"1918","url":"https://ru.wikipedia.org/wiki/%D0%9B%D1%8C%D0%B2%D0%BE%D0%B2%D1%81%D0%BA%D0%B8%D0%B9_%D0%BF%D0%BE%D0%B3%D1%80%D0%BE%D0%BC_(1918)","image_url":"http://commons.wikimedia.org/wiki/Special:FilePath/Massacre%20of%20Jews%20in%20Lviv%2C%20the%20burning%20synagogue%20in%20the%20background%20%281914%29.png","source":"Викиданные","source_id":"Q2658487","license":"CC0 (Викиданные)","confidence":"place_level"}},{"type":"Feature","id":"uprisings:08e7f8d05a1a","geometry":{"type":"Point","coordinates":[23.168672,53.132356]},"properties":{"uid":"uprisings:08e7f8d05a1a","layer":"uprisings","layer_title":"Восстания и волнения","group":"hardship","title":"Белостокский погром","category":"погром","year_from":1906,"year_to":1906,"date_precision":"year","date_approx":false,"period_raw":"1906","url":"https://ru.wikipedia.org/wiki/%D0%91%D0%B5%D0%BB%D0%BE%D1%81%D1%82%D0%BE%D0%BA%D1%81%D0%BA%D0%B8%D0%B9_%D0%BF%D0%BE%D0%B3%D1%80%D0%BE%D0%BC","image_url":"http://commons.wikimedia.org/wiki/Special:FilePath/Pogrom%20de%20Bialostok.jpg","source":"Викиданные","source_id":"Q4082818","license":"CC0 (Викиданные)","confidence":"place_level"}},{"type":"Feature","id":"uprisings:4a6f27ea05b7","geometry":{"type":"Point","coordinates":[29.483333,46.833333]},"properties":{"uid":"uprisings:4a6f27ea05b7","layer":"uprisings","layer_title":"Восстания и волнения","group":"hardship","title":"Бендерское восстание","category":"восстание","year_from":1919,"year_to":1919,"date_precision":"year","date_approx":false,"period_raw":"1919","url":"https://ru.wikipedia.org/wiki/%D0%91%D0%B5%D0%BD%D0%B4%D0%B5%D1%80%D1%81%D0%BA%D0%BE%D0%B5_%D0%B2%D0%BE%D1%81%D1%81%D1%82%D0%B0%D0%BD%D0%B8%D0%B5","source":"Викиданные","source_id":"Q4083702","license":"CC0 (Викиданные)","confidence":"place_level"}},{"type":"Feature","id":"uprisings:5fbb5f8ed5ba","geometry":{"type":"Point","coordinates":[38.0925,48.333611]},"properties":{"uid":"uprisings:5fbb5f8ed5ba","layer":"uprisings","layer_title":"Восстания и волнения","group":"hardship","title":"Горловское вооружённое восстание","category":"восстание","year_from":1905,"year_to":1905,"date_precision":"year","date_approx":false,"period_raw":"с 1905","url":"https://ru.wikipedia.org/wiki/%D0%93%D0%BE%D1%80%D0%BB%D0%BE%D0%B2%D1%81%D0%BA%D0%BE%D0%B5_%D0%B2%D0%BE%D0%BE%D1%80%D1%83%D0%B6%D1%91%D0%BD%D0%BD%D0%BE%D0%B5_%D0%B2%D0%BE%D1%81%D1%81%D1%82%D0%B0%D0%BD%D0%B8%D0%B5","source":"Викиданные","source_id":"Q4144470","license":"CC0 (Викиданные)","confidence":"place_level"}},{"type":"Feature","id":"uprisings:024ee35b240f","geometry":{"type":"Point","coordinates":[44.0075,56.326944]},"properties":{"uid":"uprisings:024ee35b240f","layer":"uprisings","layer_title":"Восстания и волнения","group":"hardship","title":"Декабрьское восстание в Нижнем Новгороде (1905)","category":"восстание","year_from":1905,"year_to":1905,"date_precision":"year","date_approx":false,"period_raw":"1905","url":"https://ru.wikipedia.org/wiki/%D0%94%D0%B5%D0%BA%D0%B0%D0%B1%D1%80%D1%8C%D1%81%D0%BA%D0%BE%D0%B5_%D0%B2%D0%BE%D1%81%D1%81%D1%82%D0%B0%D0%BD%D0%B8%D0%B5_%D0%B2_%D0%9D%D0%B8%D0%B6%D0%BD%D0%B5%D0%BC_%D0%9D%D0%BE%D0%B2%D0%B3%D0%BE%D1%80%D0%BE%D0%B4%D0%B5_(1905)","source":"Викиданные","source_id":"Q4156943","license":"CC0 (Викиданные)","confidence":"place_level"}},{"type":"Feature","id":"uprisings:736cec2d9d6e","geometry":{"type":"Point","coordinates":[30.523611,50.45]},"properties":{"uid":"uprisings:736cec2d9d6e","layer":"uprisings","layer_title":"Восстания и волнения","group":"hardship","title":"Киевский погром (1945)","category":"погром","year_from":1945,"year_to":1945,"date_precision":"year","date_approx":false,"period_raw":"1945","url":"https://ru.wikipedia.org/wiki/%D0%9A%D0%B8%D0%B5%D0%B2%D1%81%D0%BA%D0%B8%D0%B9_%D0%BF%D0%BE%D0%B3%D1%80%D0%BE%D0%BC_(1945)","source":"Викиданные","source_id":"Q4220225","license":"CC0 (Викиданные)","confidence":"place_level"}},{"type":"Feature","id":"uprisings:dace8d21555a","geometry":{"type":"Point","coordinates":[30.523611,50.45]},"properties":{"uid":"uprisings:dace8d21555a","layer":"uprisings","layer_title":"Восстания и волнения","group":"hardship","title":"Киевский погром (1919)","category":"погром","year_from":1919,"year_to":1919,"date_precision":"year","date_approx":false,"period_raw":"1919","url":"https://ru.wikipedia.org/wiki/%D0%9A%D0%B8%D0%B5%D0%B2%D1%81%D0%BA%D0%B8%D0%B9_%D0%BF%D0%BE%D0%B3%D1%80%D0%BE%D0%BC_(1919)","source":"Викиданные","source_id":"Q4220228","license":"CC0 (Викиданные)","confidence":"place_level"}},{"type":"Feature","id":"uprisings:cef8ba5abd75","geometry":{"type":"Point","coordinates":[19.937222,50.061389]},"properties":{"uid":"uprisings:cef8ba5abd75","layer":"uprisings","layer_title":"Восстания и волнения","group":"hardship","title":"Краковское восстание (1923)","category":"бунт","year_from":1923,"year_to":1923,"date_precision":"year","date_approx":false,"period_raw":"1923","url":"https://ru.wikipedia.org/wiki/%D0%9A%D1%80%D0%B0%D0%BA%D0%BE%D0%B2%D1%81%D0%BA%D0%BE%D0%B5_%D0%B2%D0%BE%D1%81%D1%81%D1%82%D0%B0%D0%BD%D0%B8%D0%B5_(1923)","source":"Викиданные","source_id":"Q4237514","license":"CC0 (Викиданные)","confidence":"place_level"}},{"type":"Feature","id":"uprisings:99a07d54c2d9","geometry":{"type":"Point","coordinates":[45.698611,43.3125]},"properties":{"uid":"uprisings:99a07d54c2d9","layer":"uprisings","layer_title":"Восстания и волнения","group":"hardship","title":"Массовые беспорядки в Грозном (1958)","category":"этнические беспорядки","year_from":1958,"year_to":1958,"date_precision":"year","date_approx":false,"period_raw":"1958","url":"https://ru.wikipedia.org/wiki/%D0%9C%D0%B0%D1%81%D1%81%D0%BE%D0%B2%D1%8B%D0%B5_%D0%B1%D0%B5%D1%81%D0%BF%D0%BE%D1%80%D1%8F%D0%B4%D0%BA%D0%B8_%D0%B2_%D0%93%D1%80%D0%BE%D0%B7%D0%BD%D0%BE%D0%BC_(1958)","source":"Викиданные","source_id":"Q4284248","license":"CC0 (Викиданные)","confidence":"place_level"}},{"type":"Feature","id":"uprisings:6973a3fd8792","geometry":{"type":"Point","coordinates":[30.3,59.933333]},"properties":{"uid":"uprisings:6973a3fd8792","layer":"uprisings","layer_title":"Восстания и волнения","group":"hardship","title":"Октябрьское вооружённое восстание в Петрограде","category":"восстание","place_text":"Санкт-Петербург","region":"Санкт-Петербург","year_from":1917,"year_to":1917,"date_precision":"year","date_approx":false,"period_raw":"1917","url":"https://ru.wikipedia.org/wiki/%D0%9E%D0%BA%D1%82%D1%8F%D0%B1%D1%80%D1%8C%D1%81%D0%BA%D0%BE%D0%B5_%D0%B2%D0%BE%D0%BE%D1%80%D1%83%D0%B6%D1%91%D0%BD%D0%BD%D0%BE%D0%B5_%D0%B2%D0%BE%D1%81%D1%81%D1%82%D0%B0%D0%BD%D0%B8%D0%B5_%D0%B2_%D0%9F%D0%B5%D1%82%D1%80%D0%BE%D0%B3%D1%80%D0%B0%D0%B4%D0%B5","image_url":"http://commons.wikimedia.org/wiki/Special:FilePath/Stormningen%20av%20vinterpalatset.jpg","source":"Викиданные","source_id":"Q4333233","license":"CC0 (Викиданные)","confidence":"ok"}},{"type":"Feature","id":"uprisings:36101a6ae64b","geometry":{"type":"Point","coordinates":[29.918056,50.074722]},"properties":{"uid":"uprisings:36101a6ae64b","layer":"uprisings","layer_title":"Восстания и волнения","group":"hardship","title":"Фастовский погром","category":"погром","year_from":1919,"year_to":1919,"date_precision":"year","date_approx":false,"period_raw":"1919","url":"https://ru.wikipedia.org/wiki/%D0%A4%D0%B0%D1%81%D1%82%D0%BE%D0%B2%D1%81%D0%BA%D0%B8%D0%B9_%D0%BF%D0%BE%D0%B3%D1%80%D0%BE%D0%BC","image_url":"http://commons.wikimedia.org/wiki/Special:FilePath/Fastov%20demolished.jpg","source":"Викиданные","source_id":"Q4481401","license":"CC0 (Викиданные)","confidence":"place_level"}},{"type":"Feature","id":"uprisings:ceddffeb0672","geometry":{"type":"Point","coordinates":[82.616667,49.95]},"properties":{"uid":"uprisings:ceddffeb0672","layer":"uprisings","layer_title":"Восстания и волнения","group":"hardship","title":"Чеченский погром 1951 года в Восточном Казахстане","category":"этнические беспорядки","year_from":1951,"year_to":1951,"date_precision":"year","date_approx":false,"period_raw":"1951","url":"https://ru.wikipedia.org/wiki/%D0%A7%D0%B5%D1%87%D0%B5%D0%BD%D1%81%D0%BA%D0%B8%D0%B9_%D0%BF%D0%BE%D0%B3%D1%80%D0%BE%D0%BC_1951_%D0%B3%D0%BE%D0%B4%D0%B0_%D0%B2_%D0%92%D0%BE%D1%81%D1%82%D0%BE%D1%87%D0%BD%D0%BE%D0%BC_%D0%9A%D0%B0%D0%B7%D0%B0%D1%85%D1%81%D1%82%D0%B0%D0%BD%D0%B5","source":"Викиданные","source_id":"Q4515326","license":"CC0 (Викиданные)","confidence":"place_level"}},{"type":"Feature","id":"uprisings:6e932980998f","geometry":{"type":"Point","coordinates":[37.6175,55.750556]},"properties":{"uid":"uprisings:6e932980998f","layer":"uprisings","layer_title":"Восстания и волнения","group":"hardship","title":"Чумной бунт","category":"восстание","year_from":1771,"year_to":1771,"date_precision":"year","date_approx":false,"period_raw":"1771","url":"https://ru.wikipedia.org/wiki/%D0%A7%D1%83%D0%BC%D0%BD%D0%BE%D0%B9_%D0%B1%D1%83%D0%BD%D1%82","image_url":"http://commons.wikimedia.org/wiki/Special:FilePath/Chumbunt.png","source":"Викиданные","source_id":"Q4518057","license":"CC0 (Викиданные)","confidence":"place_level"}},{"type":"Feature","id":"uprisings:fd3ad1b3f76e","geometry":{"type":"Point","coordinates":[51.3725,51.2225]},"properties":{"uid":"uprisings:fd3ad1b3f76e","layer":"uprisings","layer_title":"Восстания и волнения","group":"hardship","title":"Яицкое казачье восстание (1772)","category":"восстание","year_from":1772,"year_to":1772,"date_precision":"year","date_approx":false,"period_raw":"1772","url":"https://ru.wikipedia.org/wiki/%D0%AF%D0%B8%D1%86%D0%BA%D0%BE%D0%B5_%D0%BA%D0%B0%D0%B7%D0%B0%D1%87%D1%8C%D0%B5_%D0%B2%D0%BE%D1%81%D1%81%D1%82%D0%B0%D0%BD%D0%B8%D0%B5_(1772)","source":"Викиданные","source_id":"Q4536569","license":"CC0 (Викиданные)","confidence":"place_level"}},{"type":"Feature","id":"uprisings:6fe7853200d0","geometry":{"type":"Point","coordinates":[49.876389,56.090556]},"properties":{"uid":"uprisings:6fe7853200d0","layer":"uprisings","layer_title":"Восстания и волнения","group":"hardship","title":"Арское восстание","category":"восстание","year_from":1918,"year_to":1918,"date_precision":"year","date_approx":false,"period_raw":"1918","url":"https://ru.wikipedia.org/wiki/%D0%90%D1%80%D1%81%D0%BA%D0%BE%D0%B5_%D0%B2%D0%BE%D1%81%D1%81%D1%82%D0%B0%D0%BD%D0%B8%D0%B5","source":"Викиданные","source_id":"Q4796575","license":"CC0 (Викиданные)","confidence":"place_level"}},{"type":"Feature","id":"uprisings:c174e1dccc35","geometry":{"type":"Point","coordinates":[45.37714,42.03249]},"properties":{"uid":"uprisings:c174e1dccc35","layer":"uprisings","layer_title":"Восстания и волнения","group":"hardship","title":"Кахетинское восстание","category":"восстание","year_from":1659,"year_to":1659,"date_precision":"year","date_approx":false,"period_raw":"1659","url":"https://ru.wikipedia.org/wiki/%D0%9A%D0%B0%D1%85%D0%B5%D1%82%D0%B8%D0%BD%D1%81%D0%BA%D0%BE%D0%B5_%D0%B2%D0%BE%D1%81%D1%81%D1%82%D0%B0%D0%BD%D0%B8%D0%B5_(1659)","image_url":"http://commons.wikimedia.org/wiki/Special:FilePath/Alaverdi%20monastery%20in%20Kakheti%2C%20Georgia%20%283%29.jpg","source":"Викиданные","source_id":"Q4849424","license":"CC0 (Викиданные)","confidence":"place_level"}},{"type":"Feature","id":"uprisings:610a088f6ed5","geometry":{"type":"Point","coordinates":[25.8,49.016667]},"properties":{"uid":"uprisings:610a088f6ed5","layer":"uprisings","layer_title":"Восстания и волнения","group":"hardship","title":"Чортковское восстание","category":"восстание","year_from":1940,"year_to":1940,"date_precision":"year","date_approx":false,"period_raw":"1940","url":"https://ru.wikipedia.org/wiki/%D0%A7%D0%BE%D1%80%D1%82%D0%BA%D0%BE%D0%B2%D1%81%D0%BA%D0%BE%D0%B5_%D0%B2%D0%BE%D1%81%D1%81%D1%82%D0%B0%D0%BD%D0%B8%D0%B5","image_url":"http://commons.wikimedia.org/wiki/Special:FilePath/Willa%20Wasilewskich%20-%20Czortk%C3%B3w%201939.jpg","source":"Викиданные","source_id":"Q5202160","license":"CC0 (Викиданные)","confidence":"place_level"}},{"type":"Feature","id":"uprisings:e8c3cfe2ed6c","geometry":{"type":"Point","coordinates":[30.34296,53.90894]},"properties":{"uid":"uprisings:e8c3cfe2ed6c","layer":"uprisings","layer_title":"Восстания и волнения","group":"hardship","title":"Восстание в Могилёве (1661)","category":"восстание","year_from":1661,"year_to":1661,"date_precision":"year","date_approx":false,"period_raw":"1661","url":"https://ru.wikipedia.org/wiki/%D0%9C%D0%BE%D0%B3%D0%B8%D0%BB%D1%91%D0%B2%D1%81%D0%BA%D0%BE%D0%B5_%D0%B2%D0%BE%D1%81%D1%81%D1%82%D0%B0%D0%BD%D0%B8%D0%B5_(1661)","source":"Викиданные","source_id":"Q6510220","license":"CC0 (Викиданные)","confidence":"place_level"}},{"type":"Feature","id":"uprisings:86753a0a8395","geometry":{"type":"Point","coordinates":[47.816667,40.6]},"properties":{"uid":"uprisings:86753a0a8395","layer":"uprisings","layer_title":"Восстания и волнения","group":"hardship","title":"Восстание Шахкулу","category":"восстание","year_from":1511,"year_to":1511,"date_precision":"year","date_approx":false,"period_raw":"1511","url":"https://ru.wikipedia.org/wiki/%D0%92%D0%BE%D1%81%D1%81%D1%82%D0%B0%D0%BD%D0%B8%D0%B5_%D0%A8%D0%B0%D1%85%D0%BA%D1%83%D0%BB%D1%83","source":"Викиданные","source_id":"Q6569289","license":"CC0 (Викиданные)","confidence":"place_level"}},{"type":"Feature","id":"uprisings:6c37d3597021","geometry":{"type":"Point","coordinates":[25.014444,59.087778]},"properties":{"uid":"uprisings:6c37d3597021","layer":"uprisings","layer_title":"Восстания и волнения","group":"hardship","title":"Mahtra War","category":"крестьянское восстание","year_from":1858,"year_to":1858,"date_precision":"year","date_approx":false,"period_raw":"1858","url":"https://www.wikidata.org/wiki/Q6734943","source":"Викиданные","source_id":"Q6734943","license":"CC0 (Викиданные)","confidence":"place_level"}},{"type":"Feature","id":"uprisings:c31e48b173af","geometry":{"type":"Point","coordinates":[31.27579,58.52099]},"properties":{"uid":"uprisings:c31e48b173af","layer":"uprisings","layer_title":"Восстания и волнения","group":"hardship","title":"Новгородское восстание 1650 года","category":"восстание","year_from":1650,"year_to":1650,"date_precision":"year","date_approx":false,"period_raw":"1650","url":"https://ru.wikipedia.org/wiki/%D0%9D%D0%BE%D0%B2%D0%B3%D0%BE%D1%80%D0%BE%D0%B4%D1%81%D0%BA%D0%BE%D0%B5_%D0%B2%D0%BE%D1%81%D1%81%D1%82%D0%B0%D0%BD%D0%B8%D0%B5_(1650)","source":"Викиданные","source_id":"Q7064830","license":"CC0 (Викиданные)","confidence":"place_level"}},{"type":"Feature","id":"uprisings:b1f57758ed5a","geometry":{"type":"Point","coordinates":[23.258611,50.720556]},"properties":{"uid":"uprisings:b1f57758ed5a","layer":"uprisings","layer_title":"Восстания и волнения","group":"hardship","title":"Замойское восстание","category":"восстание","year_from":1942,"year_to":1942,"date_precision":"year","date_approx":false,"period_raw":"1942","url":"https://ru.wikipedia.org/wiki/%D0%97%D0%B0%D0%BC%D0%BE%D0%B9%D1%81%D0%BA%D0%BE%D0%B5_%D0%B2%D0%BE%D1%81%D1%81%D1%82%D0%B0%D0%BD%D0%B8%D0%B5","image_url":"http://commons.wikimedia.org/wiki/Special:FilePath/General%20Government%20for%20the%20occupied%20Polish%20territories%20%281941%29.png","source":"Викиданные","source_id":"Q8065947","license":"CC0 (Викиданные)","confidence":"place_level"}},{"type":"Feature","id":"uprisings:47a2d0586f21","geometry":{"type":"Point","coordinates":[26.103056,52.115278]},"properties":{"uid":"uprisings:47a2d0586f21","layer":"uprisings","layer_title":"Восстания и волнения","group":"hardship","title":"Pina Uprising of 1648","category":"восстание","year_from":1648,"year_to":1648,"date_precision":"year","date_approx":false,"period_raw":"1648","url":"https://www.wikidata.org/wiki/Q8451538","source":"Викиданные","source_id":"Q8451538","license":"CC0 (Викиданные)","confidence":"place_level"}},{"type":"Feature","id":"uprisings:9c93ae18ced0","geometry":{"type":"Point","coordinates":[56.908611,65.981389]},"properties":{"uid":"uprisings:9c93ae18ced0","layer":"uprisings","layer_title":"Восстания и волнения","group":"hardship","title":"Усть-Усинское восстание заключённых","category":"восстание","year_from":1942,"year_to":1942,"date_precision":"year","date_approx":false,"period_raw":"1942","url":"https://ru.wikipedia.org/wiki/%D0%A3%D1%81%D1%82%D1%8C-%D0%A3%D1%81%D0%B8%D0%BD%D1%81%D0%BA%D0%BE%D0%B5_%D0%B2%D0%BE%D1%81%D1%81%D1%82%D0%B0%D0%BD%D0%B8%D0%B5_%D0%B7%D0%B0%D0%BA%D0%BB%D1%8E%D1%87%D1%91%D0%BD%D0%BD%D1%8B%D1%85","source":"Викиданные","source_id":"Q9367361","license":"CC0 (Викиданные)","confidence":"place_level"}},{"type":"Feature","id":"uprisings:6bc8df2a6578","geometry":{"type":"Point","coordinates":[20.035556,50.079167]},"properties":{"uid":"uprisings:6bc8df2a6578","layer":"uprisings","layer_title":"Восстания и волнения","group":"hardship","title":"Q9379985","category":"бунт","year_from":1960,"year_to":1960,"date_precision":"year","date_approx":false,"period_raw":"1960","url":"https://www.wikidata.org/wiki/Q9379985","image_url":"http://commons.wikimedia.org/wiki/Special:FilePath/Osiedle%20Teatralne%2C%20school%2C%20church%2C%20cross%2C%20Nowa%20Huta%2C%20Krakow%2C%20Poland.jpg","source":"Викиданные","source_id":"Q9379985","license":"CC0 (Викиданные)","confidence":"ok"}},{"type":"Feature","id":"uprisings:51b96586b5b0","geometry":{"type":"Point","coordinates":[21.008333,52.232222]},"properties":{"uid":"uprisings:51b96586b5b0","layer":"uprisings","layer_title":"Восстания и волнения","group":"hardship","title":"Warsaw Riots 1861","category":"бунт","place_text":"Варшава","region":"Варшава","year_from":1861,"year_to":1861,"date_precision":"year","date_approx":false,"period_raw":"1861","url":"https://www.wikidata.org/wiki/Q11771084","source":"Викиданные","source_id":"Q11771084","license":"CC0 (Викиданные)","confidence":"ok"}},{"type":"Feature","id":"uprisings:e08a3ced9635","geometry":{"type":"Point","coordinates":[24.9375,60.170833]},"properties":{"uid":"uprisings:e08a3ced9635","layer":"uprisings","layer_title":"Восстания и волнения","group":"hardship","title":"Arabia strike","category":"забастовка","year_from":1948,"year_to":1948,"date_precision":"year","date_approx":false,"period_raw":"1948","url":"https://www.wikidata.org/wiki/Q11852398","source":"Викиданные","source_id":"Q11852398","license":"CC0 (Викиданные)","confidence":"place_level"}},{"type":"Feature","id":"uprisings:161f4de11c6f","geometry":{"type":"Point","coordinates":[31.75,60.05]},"properties":{"uid":"uprisings:161f4de11c6f","layer":"uprisings","layer_title":"Восстания и волнения","group":"hardship","title":"Revolt of the Ingrian Finns","category":"восстание","year_from":1918,"year_to":1920,"date_precision":"year","date_approx":false,"period_raw":"1918–1920","url":"https://www.wikidata.org/wiki/Q11864899","source":"Викиданные","source_id":"Q11864899","license":"CC0 (Викиданные)","confidence":"ok"}},{"type":"Feature","id":"uprisings:81deec678741","geometry":{"type":"Point","coordinates":[24.563416,65.733635]},"properties":{"uid":"uprisings:81deec678741","layer":"uprisings","layer_title":"Восстания и волнения","group":"hardship","title":"1949 Kemi strike","category":"забастовка","year_from":1949,"year_to":1949,"date_precision":"year","date_approx":false,"period_raw":"1949","url":"https://www.wikidata.org/wiki/Q11870881","image_url":"http://commons.wikimedia.org/wiki/Special:FilePath/Kemi%20strikes%201949.jpg","source":"Викиданные","source_id":"Q11870881","license":"CC0 (Викиданные)","confidence":"place_level"}},{"type":"Feature","id":"uprisings:caa388d4e63b","geometry":{"type":"Point","coordinates":[30.116667,49.795556]},"properties":{"uid":"uprisings:caa388d4e63b","layer":"uprisings","layer_title":"Восстания и волнения","group":"hardship","title":"Белоцерковское городское восстание","category":"восстание","year_from":1589,"year_to":1589,"date_precision":"year","date_approx":false,"period_raw":"1589","url":"https://ru.wikipedia.org/wiki/%D0%91%D0%B5%D0%BB%D0%BE%D1%86%D0%B5%D1%80%D0%BA%D0%BE%D0%B2%D1%81%D0%BA%D0%BE%D0%B5_%D0%B3%D0%BE%D1%80%D0%BE%D0%B4%D1%81%D0%BA%D0%BE%D0%B5_%D0%B2%D0%BE%D1%81%D1%81%D1%82%D0%B0%D0%BD%D0%B8%D0%B5_(1589)","source":"Викиданные","source_id":"Q12086824","license":"CC0 (Викиданные)","confidence":"place_level"}},{"type":"Feature","id":"uprisings:1704ba874bc4","geometry":{"type":"Point","coordinates":[30.316667,59.95]},"properties":{"uid":"uprisings:1704ba874bc4","layer":"uprisings","layer_title":"Восстания и волнения","group":"hardship","title":"Путиловский страйк","category":"восстание","year_from":1905,"year_to":1905,"date_precision":"year","date_approx":false,"period_raw":"1905","url":"https://www.wikidata.org/wiki/Q12145666","source":"Викиданные","source_id":"Q12145666","license":"CC0 (Викиданные)","confidence":"place_level"}},{"type":"Feature","id":"uprisings:416bf0ae5a25","geometry":{"type":"Point","coordinates":[28.835278,47.022778]},"properties":{"uid":"uprisings:416bf0ae5a25","layer":"uprisings","layer_title":"Восстания и волнения","group":"hardship","title":"Second Kishinev pogrom","category":"погром","year_from":1905,"year_to":1905,"date_precision":"year","date_approx":false,"period_raw":"с 1905","url":"https://www.wikidata.org/wiki/Q12738261","source":"Викиданные","source_id":"Q12738261","license":"CC0 (Викиданные)","confidence":"place_level"}},{"type":"Feature","id":"uprisings:8e0382dcf33d","geometry":{"type":"Point","coordinates":[47.615556,39.769167]},"properties":{"uid":"uprisings:8e0382dcf33d","layer":"uprisings","layer_title":"Восстания и волнения","group":"hardship","title":"Q12837536","category":"восстание","date_precision":"unknown","date_approx":false,"url":"https://www.wikidata.org/wiki/Q12837536","source":"Викиданные","source_id":"Q12837536","license":"CC0 (Викиданные)","confidence":"place_level"}},{"type":"Feature","id":"uprisings:53a428bdf906","geometry":{"type":"Point","coordinates":[38.427778,48.341111]},"properties":{"uid":"uprisings:53a428bdf906","layer":"uprisings","layer_title":"Восстания и волнения","group":"hardship","title":"Дебальцевское вооруженное восстание","category":"восстание","year_from":1905,"year_to":1905,"date_precision":"year","date_approx":false,"period_raw":"1905","url":"https://ru.wikipedia.org/wiki/%D0%94%D0%B5%D0%B1%D0%B0%D0%BB%D1%8C%D1%86%D0%B5%D0%B2%D1%81%D0%BA%D0%BE%D0%B5_%D0%B2%D0%BE%D0%BE%D1%80%D1%83%D0%B6%D1%91%D0%BD%D0%BD%D0%BE%D0%B5_%D0%B2%D0%BE%D1%81%D1%81%D1%82%D0%B0%D0%BD%D0%B8%D0%B5_(1905)","source":"Викиданные","source_id":"Q14814581","license":"CC0 (Викиданные)","confidence":"place_level"}},{"type":"Feature","id":"uprisings:e5540c01b481","geometry":{"type":"Point","coordinates":[22.283333,55.25]},"properties":{"uid":"uprisings:e5540c01b481","layer":"uprisings","layer_title":"Восстания и волнения","group":"hardship","title":"Tauragė Revolt","category":"восстание","year_from":1927,"year_to":1927,"date_precision":"year","date_approx":false,"period_raw":"1927","url":"https://www.wikidata.org/wiki/Q15346910","source":"Викиданные","source_id":"Q15346910","license":"CC0 (Викиданные)","confidence":"place_level"}},{"type":"Feature","id":"uprisings:acb5f0ce54a2","geometry":{"type":"Point","coordinates":[23.15352,56.968789]},"properties":{"uid":"uprisings:acb5f0ce54a2","layer":"uprisings","layer_title":"Восстания и волнения","group":"hardship","title":"Вооружённое восстание в Тукумсе","category":"восстание","year_from":1905,"year_to":1905,"date_precision":"year","date_approx":false,"period_raw":"1905","url":"https://ru.wikipedia.org/wiki/%D0%92%D0%BE%D1%81%D1%81%D1%82%D0%B0%D0%BD%D0%B8%D0%B5_%D0%B2_%D0%A2%D1%83%D0%BA%D1%83%D0%BC%D1%81%D0%B5","image_url":"http://commons.wikimedia.org/wiki/Special:FilePath/Br%C4%ABv%C4%ABbas%20piemineklis-1905%20gads.png","source":"Викиданные","source_id":"Q16354042","license":"CC0 (Викиданные)","confidence":"place_level"}},{"type":"Feature","id":"uprisings:9060cb45ed8c","geometry":{"type":"Point","coordinates":[34.677778,44.822222]},"properties":{"uid":"uprisings:9060cb45ed8c","layer":"uprisings","layer_title":"Восстания и волнения","group":"hardship","title":"Алакатское восстание","category":"восстание","year_from":1929,"year_to":1930,"date_precision":"year","date_approx":false,"period_raw":"1929–1930","url":"https://ru.wikipedia.org/wiki/%D0%90%D0%BB%D0%B0%D0%BA%D0%B0%D1%82%D1%81%D0%BA%D0%BE%D0%B5_%D0%B2%D0%BE%D1%81%D1%81%D1%82%D0%B0%D0%BD%D0%B8%D0%B5","image_url":"http://commons.wikimedia.org/wiki/Special:FilePath/Memorial%20to%20tatars%20died%20in%201929-1930%20-%20panoramio.jpg","source":"Викиданные","source_id":"Q16487947","license":"CC0 (Викиданные)","confidence":"place_level"}},{"type":"Feature","id":"uprisings:454820ffe77c","geometry":{"type":"Point","coordinates":[20.991667,52.236583]},"properties":{"uid":"uprisings:454820ffe77c","layer":"uprisings","layer_title":"Восстания и волнения","group":"hardship","title":"Alfonse Pogrom","category":"бунт","year_from":1905,"year_to":1905,"date_precision":"year","date_approx":false,"period_raw":"1905","url":"https://www.wikidata.org/wiki/Q16589302","source":"Викиданные","source_id":"Q16589302","license":"CC0 (Викиданные)","confidence":"ok"}},{"type":"Feature","id":"uprisings:8701945eaca6","geometry":{"type":"Point","coordinates":[30.523611,50.45]},"properties":{"uid":"uprisings:8701945eaca6","layer":"uprisings","layer_title":"Восстания и волнения","group":"hardship","title":"Kiev Pogrom","category":"погром","year_from":1905,"year_to":1905,"date_precision":"year","date_approx":false,"period_raw":"1905","url":"https://www.wikidata.org/wiki/Q16852244","source":"Викиданные","source_id":"Q16852244","license":"CC0 (Викиданные)","confidence":"place_level"}},{"type":"Feature","id":"uprisings:4f8ce6b05eef","geometry":{"type":"Point","coordinates":[24.951111,60.178889]},"properties":{"uid":"uprisings:4f8ce6b05eef","layer":"uprisings","layer_title":"Восстания и волнения","group":"hardship","title":"Q18658812","category":"бунт","year_from":1906,"year_to":1906,"date_precision":"year","date_approx":false,"period_raw":"1906","url":"https://www.wikidata.org/wiki/Q18658812","image_url":"http://commons.wikimedia.org/wiki/Special:FilePath/Hakaniementori%201913.jpg","source":"Викиданные","source_id":"Q18658812","license":"CC0 (Викиданные)","confidence":"ok"}},{"type":"Feature","id":"uprisings:683284dc8224","geometry":{"type":"Point","coordinates":[24.9375,60.170833]},"properties":{"uid":"uprisings:683284dc8224","layer":"uprisings","layer_title":"Восстания и волнения","group":"hardship","title":"Q18658937","category":"забастовка","year_from":1872,"year_to":1872,"date_precision":"year","date_approx":false,"period_raw":"1872","url":"https://www.wikidata.org/wiki/Q18658937","source":"Викиданные","source_id":"Q18658937","license":"CC0 (Викиданные)","confidence":"place_level"}},{"type":"Feature","id":"uprisings:d45201a5de7a","geometry":{"type":"Point","coordinates":[22.699428,61.183153]},"properties":{"uid":"uprisings:d45201a5de7a","layer":"uprisings","layer_title":"Восстания и волнения","group":"hardship","title":"Q18659179","category":"бунт","year_from":1917,"year_to":1917,"date_precision":"year","date_approx":false,"period_raw":"1917","url":"https://www.wikidata.org/wiki/Q18659179","image_url":"http://commons.wikimedia.org/wiki/Special:FilePath/Huittinen%20Old%20Dairy.JPG","source":"Викиданные","source_id":"Q18659179","license":"CC0 (Викиданные)","confidence":"ok"}},{"type":"Feature","id":"uprisings:7e1f50f4d6c1","geometry":{"type":"Point","coordinates":[28.467222,49.237222]},"properties":{"uid":"uprisings:7e1f50f4d6c1","layer":"uprisings","layer_title":"Восстания и волнения","group":"hardship","title":"Vinnytsia Bolshevik Uprising","category":"восстание","year_from":1917,"year_to":1917,"date_precision":"year","date_approx":false,"period_raw":"1917","url":"https://www.wikidata.org/wiki/Q18737255","source":"Викиданные","source_id":"Q18737255","license":"CC0 (Викиданные)","confidence":"place_level"}},{"type":"Feature","id":"uprisings:669dbb86528f","geometry":{"type":"Point","coordinates":[30.523611,50.45]},"properties":{"uid":"uprisings:669dbb86528f","layer":"uprisings","layer_title":"Восстания и волнения","group":"hardship","title":"Kyiv Pogrom","category":"погром","year_from":1881,"year_to":1881,"date_precision":"year","date_approx":false,"period_raw":"1881","url":"https://www.wikidata.org/wiki/Q19869495","image_url":"http://commons.wikimedia.org/wiki/Special:FilePath/1881-06-22%2C%20La%20Ilustraci%C3%B3n%20Espa%C3%B1ola%20y%20Americana%2C%20Kieff%20%28Rusia%29%2C%20La%20expulsi%C3%B3n%20de%20los%20jud%C3%ADos%20eslavos%2C%20familias%20israelitas%20abandonando%20sus%20hogares%20%28cropped%29.jpg","source":"Викиданные","source_id":"Q19869495","license":"CC0 (Викиданные)","confidence":"place_level"}},{"type":"Feature","id":"uprisings:3e5db40fdd80","geometry":{"type":"Point","coordinates":[22.3,53.566667]},"properties":{"uid":"uprisings:3e5db40fdd80","layer":"uprisings","layer_title":"Восстания и волнения","group":"hardship","title":"Погром в Щучине","category":"погром","year_from":1941,"year_to":1941,"date_precision":"year","date_approx":false,"period_raw":"1941","url":"https://ru.wikipedia.org/wiki/%D0%9F%D0%BE%D0%B3%D1%80%D0%BE%D0%BC_%D0%B2_%D0%A9%D1%83%D1%87%D0%B8%D0%BD%D0%B5_(%D0%9F%D0%BE%D0%BB%D1%8C%D1%88%D0%B0)","source":"Викиданные","source_id":"Q21705712","license":"CC0 (Викиданные)","confidence":"place_level"}},{"type":"Feature","id":"uprisings:e12e6a6253a2","geometry":{"type":"Point","coordinates":[31.38,51.73]},"properties":{"uid":"uprisings:e12e6a6253a2","layer":"uprisings","layer_title":"Восстания и волнения","group":"hardship","title":"Выхвостовская трагедия","category":"массовые беспорядки","year_from":1905,"year_to":1905,"date_precision":"year","date_approx":false,"period_raw":"1905","url":"https://ru.wikipedia.org/wiki/%D0%92%D1%8B%D1%85%D0%B2%D0%BE%D1%81%D1%82%D0%BE%D0%B2%D1%81%D0%BA%D0%B0%D1%8F_%D1%82%D1%80%D0%B0%D0%B3%D0%B5%D0%B4%D0%B8%D1%8F","source":"Викиданные","source_id":"Q25432671","license":"CC0 (Викиданные)","confidence":"place_level"}},{"type":"Feature","id":"uprisings:a85383d44fd1","geometry":{"type":"Point","coordinates":[64.428611,39.774722]},"properties":{"uid":"uprisings:a85383d44fd1","layer":"uprisings","layer_title":"Восстания и волнения","group":"hardship","title":"Беспорядки и столкновения в Бухаре (1910)","category":"массовые беспорядки","year_from":1910,"year_to":1910,"date_precision":"year","date_approx":false,"period_raw":"1910","url":"https://ru.wikipedia.org/wiki/%D0%91%D0%B5%D1%81%D0%BF%D0%BE%D1%80%D1%8F%D0%B4%D0%BA%D0%B8_%D0%B8_%D1%81%D1%82%D0%BE%D0%BB%D0%BA%D0%BD%D0%BE%D0%B2%D0%B5%D0%BD%D0%B8%D1%8F_%D0%B2_%D0%91%D1%83%D1%85%D0%B0%D1%80%D0%B5_(1910)","source":"Викиданные","source_id":"Q25531814","license":"CC0 (Викиданные)","confidence":"place_level"}},{"type":"Feature","id":"uprisings:62962cf20060","geometry":{"type":"Point","coordinates":[30.316667,59.95]},"properties":{"uid":"uprisings:62962cf20060","layer":"uprisings","layer_title":"Восстания и волнения","group":"hardship","title":"Восстание юнкеров в Петрограде","category":"мятеж","year_from":1917,"year_to":1917,"date_precision":"year","date_approx":false,"period_raw":"1917","url":"https://ru.wikipedia.org/wiki/%D0%92%D0%BE%D1%81%D1%81%D1%82%D0%B0%D0%BD%D0%B8%D0%B5_%D1%8E%D0%BD%D0%BA%D0%B5%D1%80%D0%BE%D0%B2_%D0%B2_%D0%9F%D0%B5%D1%82%D1%80%D0%BE%D0%B3%D1%80%D0%B0%D0%B4%D0%B5","image_url":"http://commons.wikimedia.org/wiki/Special:FilePath/Vladimir%20Junker%20Military%20School%201916.jpg","source":"Викиданные","source_id":"Q28492393","license":"CC0 (Викиданные)","confidence":"place_level"}},{"type":"Feature","id":"uprisings:dc11f3782309","geometry":{"type":"Point","coordinates":[38.000833,48.594722]},"properties":{"uid":"uprisings:dc11f3782309","layer":"uprisings","layer_title":"Восстания и волнения","group":"hardship","title":"Беспорядки в Бахмуте","category":"массовые беспорядки","year_from":1917,"year_to":1917,"date_precision":"year","date_approx":false,"period_raw":"1917","url":"https://ru.wikipedia.org/wiki/%D0%91%D0%B5%D1%81%D0%BF%D0%BE%D1%80%D1%8F%D0%B4%D0%BA%D0%B8_%D0%B2_%D0%91%D0%B0%D1%85%D0%BC%D1%83%D1%82%D0%B5","source":"Викиданные","source_id":"Q28667243","license":"CC0 (Викиданные)","confidence":"place_level"}},{"type":"Feature","id":"uprisings:fdf8a0f730b3","geometry":{"type":"Point","coordinates":[82.916667,55.033333]},"properties":{"uid":"uprisings:fdf8a0f730b3","layer":"uprisings","layer_title":"Восстания и волнения","group":"hardship","title":"«Сахарный» бунт","category":"food riot","year_from":1916,"year_to":1916,"date_precision":"year","date_approx":false,"period_raw":"1916","url":"https://ru.wikipedia.org/wiki/%D0%A1%D0%B0%D1%85%D0%B0%D1%80%D0%BD%D1%8B%D0%B9_%D0%B1%D1%83%D0%BD%D1%82_(1916)","source":"Викиданные","source_id":"Q28667550","license":"CC0 (Викиданные)","confidence":"place_level"}},{"type":"Feature","id":"uprisings:b186ae14edf7","geometry":{"type":"Point","coordinates":[30.983333,52.441667]},"properties":{"uid":"uprisings:b186ae14edf7","layer":"uprisings","layer_title":"Восстания и волнения","group":"hardship","title":"Гомельское восстание","category":"восстание","year_from":1918,"year_to":1918,"date_precision":"year","date_approx":false,"period_raw":"1918","url":"https://ru.wikipedia.org/wiki/%D0%93%D0%BE%D0%BC%D0%B5%D0%BB%D1%8C%D1%81%D0%BA%D0%BE%D0%B5_%D0%B2%D0%BE%D1%81%D1%81%D1%82%D0%B0%D0%BD%D0%B8%D0%B5","source":"Викиданные","source_id":"Q28669227","license":"CC0 (Викиданные)","confidence":"place_level"}},{"type":"Feature","id":"uprisings:cdd1b306d694","geometry":{"type":"Point","coordinates":[20.433333,52.05]},"properties":{"uid":"uprisings:cdd1b306d694","layer":"uprisings","layer_title":"Восстания и волнения","group":"hardship","title":"Żyrardów strike","category":"забастовка","year_from":1883,"year_to":1883,"date_precision":"year","date_approx":false,"period_raw":"1883","url":"https://www.wikidata.org/wiki/Q28676230","source":"Викиданные","source_id":"Q28676230","license":"CC0 (Викиданные)","confidence":"place_level"}},{"type":"Feature","id":"uprisings:03c66e97013f","geometry":{"type":"Point","coordinates":[90.67,55.998611]},"properties":{"uid":"uprisings:03c66e97013f","layer":"uprisings","layer_title":"Восстания и волнения","group":"hardship","title":"Сережское восстание","category":"восстание","year_from":1920,"year_to":1920,"date_precision":"year","date_approx":false,"period_raw":"1920","url":"https://ru.wikipedia.org/wiki/%D0%A1%D0%B5%D1%80%D0%B5%D0%B6%D1%81%D0%BA%D0%BE%D0%B5_%D0%B2%D0%BE%D1%81%D1%81%D1%82%D0%B0%D0%BD%D0%B8%D0%B5","source":"Викиданные","source_id":"Q48941491","license":"CC0 (Викиданные)","confidence":"place_level"}},{"type":"Feature","id":"uprisings:bce5e4b365fc","geometry":{"type":"Point","coordinates":[30.73262,46.47747]},"properties":{"uid":"uprisings:bce5e4b365fc","layer":"uprisings","layer_title":"Восстания и волнения","group":"hardship","title":"Одесский погром (1905)","category":"еврейский погром","year_from":1905,"year_to":1905,"date_precision":"year","date_approx":false,"period_raw":"1905","url":"https://ru.wikipedia.org/wiki/%D0%9E%D0%B4%D0%B5%D1%81%D1%81%D0%BA%D0%B8%D0%B9_%D0%BF%D0%BE%D0%B3%D1%80%D0%BE%D0%BC_(1905)","source":"Викиданные","source_id":"Q55654401","license":"CC0 (Викиданные)","confidence":"place_level"}},{"type":"Feature","id":"uprisings:20230b8d41c6","geometry":{"type":"Point","coordinates":[52.2875,57.1525]},"properties":{"uid":"uprisings:20230b8d41c6","layer":"uprisings","layer_title":"Восстания и волнения","group":"hardship","title":"Q65441086","category":"крестьянское восстание","year_from":1906,"year_to":1906,"date_precision":"year","date_approx":false,"period_raw":"1906","url":"https://www.wikidata.org/wiki/Q65441086","source":"Викиданные","source_id":"Q65441086","license":"CC0 (Викиданные)","confidence":"place_level"}},{"type":"Feature","id":"uprisings:2299e8fb8a60","geometry":{"type":"Point","coordinates":[24.106944,56.9475]},"properties":{"uid":"uprisings:2299e8fb8a60","layer":"uprisings","layer_title":"Восстания и волнения","group":"hardship","title":"Q86002077","category":"бунт","year_from":1918,"year_to":1918,"date_precision":"year","date_approx":false,"period_raw":"1918","url":"https://www.wikidata.org/wiki/Q86002077","source":"Викиданные","source_id":"Q86002077","license":"CC0 (Викиданные)","confidence":"place_level"}},{"type":"Feature","id":"uprisings:795db1327419","geometry":{"type":"Point","coordinates":[44.766667,43.216667]},"properties":{"uid":"uprisings:795db1327419","layer":"uprisings","layer_title":"Восстания и волнения","group":"hardship","title":"Назрановское восстание","category":"мятеж","year_from":1858,"year_to":1858,"date_precision":"year","date_approx":false,"period_raw":"1858","url":"https://ru.wikipedia.org/wiki/%D0%9D%D0%B0%D0%B7%D1%80%D0%B0%D0%BD%D0%BE%D0%B2%D1%81%D0%BA%D0%BE%D0%B5_%D0%B2%D0%BE%D1%81%D1%81%D1%82%D0%B0%D0%BD%D0%B8%D0%B5","image_url":"http://commons.wikimedia.org/wiki/Special:FilePath/P.B.%20Fort%20de%20Nazaran.%20Floriant%20Gille.%20Lettres%20sur%20le%20Caucase%20et%20la%20Crim%C3%A9e.%201859.%20P.206.jpg","source":"Викиданные","source_id":"Q86662998","license":"CC0 (Викиданные)","confidence":"place_level"}},{"type":"Feature","id":"uprisings:d0848bb51c6b","geometry":{"type":"Point","coordinates":[24.031997,49.842]},"properties":{"uid":"uprisings:d0848bb51c6b","layer":"uprisings","layer_title":"Восстания и волнения","group":"hardship","title":"Lviv riots of 1932","category":"бунт","year_from":1932,"year_to":1932,"date_precision":"year","date_approx":false,"period_raw":"1932","url":"https://www.wikidata.org/wiki/Q87436380","source":"Викиданные","source_id":"Q87436380","license":"CC0 (Викиданные)","confidence":"ok"}},{"type":"Feature","id":"uprisings:c3c3ac1bf37e","geometry":{"type":"Point","coordinates":[24.031592,49.841952]},"properties":{"uid":"uprisings:c3c3ac1bf37e","layer":"uprisings","layer_title":"Восстания и волнения","group":"hardship","title":"Lviv riots of 1929","category":"бунт","year_from":1929,"year_to":1929,"date_precision":"year","date_approx":false,"period_raw":"1929","url":"https://www.wikidata.org/wiki/Q87533154","source":"Викиданные","source_id":"Q87533154","license":"CC0 (Викиданные)","confidence":"place_level"}},{"type":"Feature","id":"uprisings:24cf8e25a175","geometry":{"type":"Point","coordinates":[21.615278,63.095833]},"properties":{"uid":"uprisings:24cf8e25a175","layer":"uprisings","layer_title":"Восстания и волнения","group":"hardship","title":"Vaasa riot","category":"бунт","year_from":1930,"year_to":1930,"date_precision":"year","date_approx":false,"period_raw":"1930","url":"https://www.wikidata.org/wiki/Q97199888","image_url":"http://commons.wikimedia.org/wiki/Special:FilePath/Eino%20Niemisen%20pahoinpitely.jpg","source":"Викиданные","source_id":"Q97199888","license":"CC0 (Викиданные)","confidence":"place_level"}},{"type":"Feature","id":"uprisings:db30cbe93fa2","geometry":{"type":"Point","coordinates":[30.983333,52.441667]},"properties":{"uid":"uprisings:db30cbe93fa2","layer":"uprisings","layer_title":"Восстания и волнения","group":"hardship","title":"Еврейский погром в Гомеле","category":"погром","year_from":1903,"year_to":1903,"date_precision":"year","date_approx":false,"period_raw":"1903","url":"https://ru.wikipedia.org/wiki/%D0%95%D0%B2%D1%80%D0%B5%D0%B9%D1%81%D0%BA%D0%B8%D0%B9_%D0%BF%D0%BE%D0%B3%D1%80%D0%BE%D0%BC_%D0%B2_%D0%93%D0%BE%D0%BC%D0%B5%D0%BB%D0%B5","source":"Викиданные","source_id":"Q108001130","license":"CC0 (Викиданные)","confidence":"place_level"}},{"type":"Feature","id":"uprisings:b0192c38c7dd","geometry":{"type":"Point","coordinates":[21.007679,52.243839]},"properties":{"uid":"uprisings:b0192c38c7dd","layer":"uprisings","layer_title":"Восстания и волнения","group":"hardship","title":"Q111728794","category":"погром","place_text":"Варшава","region":"Варшава","year_from":1805,"year_to":1805,"date_precision":"year","date_approx":false,"period_raw":"1805","url":"https://www.wikidata.org/wiki/Q111728794","source":"Викиданные","source_id":"Q111728794","license":"CC0 (Викиданные)","confidence":"ok"}},{"type":"Feature","id":"uprisings:46df64976a77","geometry":{"type":"Point","coordinates":[19.178333,50.035833]},"properties":{"uid":"uprisings:46df64976a77","layer":"uprisings","layer_title":"Восстания и волнения","group":"hardship","title":"Q115367294","category":"восстание","year_from":1944,"year_to":1944,"date_precision":"year","date_approx":false,"period_raw":"с 1944","url":"https://www.wikidata.org/wiki/Q115367294","source":"Викиданные","source_id":"Q115367294","license":"CC0 (Викиданные)","confidence":"place_level"}},{"type":"Feature","id":"uprisings:2968040a2bc2","geometry":{"type":"Point","coordinates":[21.012222,52.229666]},"properties":{"uid":"uprisings:2968040a2bc2","layer":"uprisings","layer_title":"Восстания и волнения","group":"hardship","title":"January Action in the Warsaw Ghetto","category":"геноцид","place_text":"Варшава","region":"Варшава","year_from":1943,"year_to":1943,"date_precision":"year","date_approx":false,"period_raw":"1943","url":"https://www.wikidata.org/wiki/Q116257666","source":"Викиданные","source_id":"Q116257666","license":"CC0 (Викиданные)","confidence":"place_level"}},{"type":"Feature","id":"uprisings:3c6a46cb9b78","geometry":{"type":"Point","coordinates":[43.970072,42.225661]},"properties":{"uid":"uprisings:3c6a46cb9b78","layer":"uprisings","layer_title":"Восстания и волнения","group":"hardship","title":"Rebellion in Tskhinvali","category":"восстание","year_from":1918,"year_to":1918,"date_precision":"year","date_approx":false,"period_raw":"1918","url":"https://www.wikidata.org/wiki/Q122863857","source":"Викиданные","source_id":"Q122863857","license":"CC0 (Викиданные)","confidence":"place_level"}},{"type":"Feature","id":"uprisings:06299f761310","geometry":{"type":"Point","coordinates":[19.178333,50.035833]},"properties":{"uid":"uprisings:06299f761310","layer":"uprisings","layer_title":"Восстания и волнения","group":"hardship","title":"Sonderkommando Revolt in Auschwitz","category":"восстание","year_from":1944,"year_to":1944,"date_precision":"year","date_approx":false,"period_raw":"1944","url":"https://www.wikidata.org/wiki/Q123700076","source":"Викиданные","source_id":"Q123700076","license":"CC0 (Викиданные)","confidence":"place_level"}},{"type":"Feature","id":"uprisings:259cb4182c9f","geometry":{"type":"Point","coordinates":[44.710278,41.095]},"properties":{"uid":"uprisings:259cb4182c9f","layer":"uprisings","layer_title":"Восстания и волнения","group":"hardship","title":"Q124515440","category":"восстание","year_from":1903,"year_to":1903,"date_precision":"year","date_approx":false,"period_raw":"1903","url":"https://www.wikidata.org/wiki/Q124515440","image_url":"http://commons.wikimedia.org/wiki/Special:FilePath/The%20revolt%20of%20peasants%20from%20Haghpat.jpg","source":"Викиданные","source_id":"Q124515440","license":"CC0 (Викиданные)","confidence":"place_level"}},{"type":"Feature","id":"uprisings:1f70e774cec8","geometry":{"type":"Point","coordinates":[45.7175,39.371389]},"properties":{"uid":"uprisings:1f70e774cec8","layer":"uprisings","layer_title":"Восстания и волнения","group":"hardship","title":"Q131548363","category":"восстание","year_from":1920,"year_to":1920,"date_precision":"year","date_approx":false,"period_raw":"1920","url":"https://www.wikidata.org/wiki/Q131548363","source":"Викиданные","source_id":"Q131548363","license":"CC0 (Викиданные)","confidence":"place_level"}},{"type":"Feature","id":"uprisings:9d90adb7c009","geometry":{"type":"Point","coordinates":[44.908611,43.269167]},"properties":{"uid":"uprisings:9d90adb7c009","layer":"uprisings","layer_title":"Восстания и волнения","group":"hardship","title":"Ingush uprising","category":"восстание","year_from":1825,"year_to":1825,"date_precision":"year","date_approx":false,"period_raw":"1825","url":"https://www.wikidata.org/wiki/Q134590330","source":"Викиданные","source_id":"Q134590330","license":"CC0 (Викиданные)","confidence":"place_level"}},{"type":"Feature","id":"uprisings:1ba7948e1edb","geometry":{"type":"Point","coordinates":[33.39,47.91]},"properties":{"uid":"uprisings:1ba7948e1edb","layer":"uprisings","layer_title":"Восстания и волнения","group":"hardship","title":"Январское восстание в Кривом Роге","category":"восстание","year_from":1918,"year_to":1918,"date_precision":"year","date_approx":false,"period_raw":"1918","url":"https://ru.wikipedia.org/wiki/%D0%AF%D0%BD%D0%B2%D0%B0%D1%80%D1%81%D0%BA%D0%BE%D0%B5_%D0%B2%D0%BE%D1%81%D1%81%D1%82%D0%B0%D0%BD%D0%B8%D0%B5_%D0%B2_%D0%9A%D1%80%D0%B8%D0%B2%D0%BE%D0%BC_%D0%A0%D0%BE%D0%B3%D0%B5","source":"Викиданные","source_id":"Q134695264","license":"CC0 (Викиданные)","confidence":"place_level"}},{"type":"Feature","id":"uprisings:ee31028b8738","geometry":{"type":"Point","coordinates":[26.565556,50.700556]},"properties":{"uid":"uprisings:ee31028b8738","layer":"uprisings","layer_title":"Восстания и волнения","group":"hardship","title":"Q135278467","category":"погром","year_from":1941,"year_to":1941,"date_precision":"year","date_approx":false,"period_raw":"1941","url":"https://www.wikidata.org/wiki/Q135278467","source":"Викиданные","source_id":"Q135278467","license":"CC0 (Викиданные)","confidence":"place_level"}},{"type":"Feature","id":"uprisings:7b6ba0930e15","geometry":{"type":"Point","coordinates":[44.615278,41.051667]},"properties":{"uid":"uprisings:7b6ba0930e15","layer":"uprisings","layer_title":"Восстания и волнения","group":"hardship","title":"Sanahin incidents","category":"восстание","year_from":1918,"year_to":1918,"date_precision":"year","date_approx":false,"period_raw":"1918","url":"https://www.wikidata.org/wiki/Q135688624","source":"Викиданные","source_id":"Q135688624","license":"CC0 (Викиданные)","confidence":"place_level"}},{"type":"Feature","id":"uprisings:4d0d6a49944f","geometry":{"type":"Point","coordinates":[41.983333,45.05]},"properties":{"uid":"uprisings:4d0d6a49944f","layer":"uprisings","layer_title":"Восстания и волнения","group":"hardship","title":"Ставропольское восстание","category":"восстание","year_from":1918,"year_to":1918,"date_precision":"year","date_approx":false,"period_raw":"1918","url":"https://ru.wikipedia.org/wiki/%D0%A1%D1%82%D0%B0%D0%B2%D1%80%D0%BE%D0%BF%D0%BE%D0%BB%D1%8C%D1%81%D0%BA%D0%BE%D0%B5_%D0%B2%D0%BE%D1%81%D1%81%D1%82%D0%B0%D0%BD%D0%B8%D0%B5_(1918)","source":"Викиданные","source_id":"Q136815946","license":"CC0 (Викиданные)","confidence":"place_level"}},{"type":"Feature","id":"uprisings:26f2ade41805","geometry":{"type":"Point","coordinates":[48.526389,41.365278]},"properties":{"uid":"uprisings:26f2ade41805","layer":"uprisings","layer_title":"Восстания и волнения","group":"hardship","title":"Guba Riots","category":"восстание","year_from":1920,"year_to":1920,"date_precision":"year","date_approx":false,"period_raw":"1920","url":"https://www.wikidata.org/wiki/Q136840794","source":"Викиданные","source_id":"Q136840794","license":"CC0 (Викиданные)","confidence":"place_level"}},{"type":"Feature","id":"uprisings:2b1b93830334","geometry":{"type":"Point","coordinates":[64.428611,39.774722]},"properties":{"uid":"uprisings:2b1b93830334","layer":"uprisings","layer_title":"Восстания и волнения","group":"hardship","title":"Sharik ibn Shaikh's Rebellion","category":"восстание","date_precision":"unknown","date_approx":false,"url":"https://www.wikidata.org/wiki/Q138535645","source":"Викиданные","source_id":"Q138535645","license":"CC0 (Викиданные)","confidence":"place_level"}},{"type":"Feature","id":"uprisings:7eb7fbd81359","geometry":{"type":"Point","coordinates":[34.466667,53.866667]},"properties":{"uid":"uprisings:7eb7fbd81359","layer":"uprisings","layer_title":"Восстания и волнения","group":"hardship","title":"Людиновские рабочие волнения","category":"забастовка","year_from":1861,"year_to":1861,"date_precision":"year","date_approx":false,"period_raw":"1861","summary":"стихийные выступления рабочих Людиновского горного завода","url":"https://ru.wikipedia.org/wiki/%D0%9B%D1%8E%D0%B4%D0%B8%D0%BD%D0%BE%D0%B2%D1%81%D0%BA%D0%B8%D0%B5_%D1%80%D0%B0%D0%B1%D0%BE%D1%87%D0%B8%D0%B5_%D0%B2%D0%BE%D0%BB%D0%BD%D0%B5%D0%BD%D0%B8%D1%8F","source":"Викиданные","source_id":"Q112585162","license":"CC0 (Викиданные)","confidence":"place_level"}},{"type":"Feature","id":"uprisings:8c508f1078e0","geometry":{"type":"Point","coordinates":[30.73262,46.47747]},"properties":{"uid":"uprisings:8c508f1078e0","layer":"uprisings","layer_title":"Восстания и волнения","group":"hardship","title":"Одесский погром (1821)","category":"погром","year_from":1821,"year_to":1821,"date_precision":"year","date_approx":false,"period_raw":"1821","summary":"еврейский погром в Одессе 19 июня 1821 года","url":"https://ru.wikipedia.org/wiki/%D0%9E%D0%B4%D0%B5%D1%81%D1%81%D0%BA%D0%B8%D0%B9_%D0%BF%D0%BE%D0%B3%D1%80%D0%BE%D0%BC_(1821)","source":"Викиданные","source_id":"Q124207142","license":"CC0 (Викиданные)","confidence":"place_level"}},{"type":"Feature","id":"uprisings:36a4efeb4b5f","geometry":{"type":"Point","coordinates":[30.431553,59.893937]},"properties":{"uid":"uprisings:36a4efeb4b5f","layer":"uprisings","layer_title":"Восстания и волнения","group":"hardship","title":"Максвельская оборона","category":"забастовка","year_from":1898,"year_to":1898,"date_precision":"year","date_approx":false,"period_raw":"1898","summary":"противостояние между бастующими рабочими фабрики Максвеля и полицейскими силами 14—17 декабря 1898 года на окраине Санкт-Петербурга","url":"https://ru.wikipedia.org/wiki/%D0%9C%D0%B0%D0%BA%D1%81%D0%B2%D0%B5%D0%BB%D1%8C%D1%81%D0%BA%D0%B0%D1%8F_%D0%BE%D0%B1%D0%BE%D1%80%D0%BE%D0%BD%D0%B0","source":"Викиданные","source_id":"Q140833333","license":"CC0 (Викиданные)","confidence":"ok"}},{"type":"Feature","id":"uprisings:6c9a559c24ef","geometry":{"type":"Point","coordinates":[21.496389,54.080556]},"properties":{"uid":"uprisings:6c9a559c24ef","layer":"uprisings","layer_title":"Восстания и волнения","group":"hardship","title":"Заговор 20 июля","category":"попытка убийства","place_text":"Кентшин","region":"Кентшин","year_from":1944,"year_to":1944,"date_precision":"year","date_approx":false,"period_raw":"1944","summary":"попытка убийства Адольфа Гитлера 20 июля 1944 года","url":"https://ru.wikipedia.org/wiki/%D0%97%D0%B0%D0%B3%D0%BE%D0%B2%D0%BE%D1%80_20_%D0%B8%D1%8E%D0%BB%D1%8F","image_url":"http://commons.wikimedia.org/wiki/Special:FilePath/Bundesarchiv%20Bild%20146-1972-025-10%2C%20Hitler-Attentat%2C%2020.%20Juli%201944.jpg","source":"Викиданные","source_id":"Q105570","license":"CC0 (Викиданные)","confidence":"ok"}},{"type":"Feature","id":"uprisings:47ecb8e6c2af","geometry":{"type":"Point","coordinates":[30.303,59.9335]},"properties":{"uid":"uprisings:47ecb8e6c2af","layer":"uprisings","layer_title":"Восстания и волнения","group":"hardship","title":"Восстание декабристов","category":"восстание","year_from":1825,"year_to":1825,"date_precision":"year","date_approx":false,"period_raw":"1825","summary":"попытка государственного переворота в Российской империи в 1825 году","url":"https://ru.wikipedia.org/wiki/%D0%92%D0%BE%D1%81%D1%81%D1%82%D0%B0%D0%BD%D0%B8%D0%B5_%D0%B4%D0%B5%D0%BA%D0%B0%D0%B1%D1%80%D0%B8%D1%81%D1%82%D0%BE%D0%B2","image_url":"http://commons.wikimedia.org/wiki/Special:FilePath/Peterburg%2C%20Senate%20Square%2C%201825%2C%20dec.%2014.jpg","source":"Викиданные","source_id":"Q126306","license":"CC0 (Викиданные)","confidence":"ok"}},{"type":"Feature","id":"uprisings:c57ec6995f5d","geometry":{"type":"Point","coordinates":[30.316667,59.95]},"properties":{"uid":"uprisings:c57ec6995f5d","layer":"uprisings","layer_title":"Восстания и волнения","group":"hardship","title":"Кровавое воскресенье","category":"забастовка","year_from":1905,"year_to":1905,"date_precision":"year","date_approx":false,"period_raw":"1905","summary":"расстрел шествия петербургских рабочих к Зимнему дворцу","url":"https://ru.wikipedia.org/wiki/%D0%9A%D1%80%D0%BE%D0%B2%D0%B0%D0%B2%D0%BE%D0%B5_%D0%B2%D0%BE%D1%81%D0%BA%D1%80%D0%B5%D1%81%D0%B5%D0%BD%D1%8C%D0%B5","image_url":"http://commons.wikimedia.org/wiki/Special:FilePath/BloodySunday1905b.jpg","source":"Викиданные","source_id":"Q185642","license":"CC0 (Викиданные)","confidence":"place_level"}},{"type":"Feature","id":"uprisings:7a22c2ea49be","geometry":{"type":"Point","coordinates":[21.010833,52.23]},"properties":{"uid":"uprisings:7a22c2ea49be","layer":"uprisings","layer_title":"Восстания и волнения","group":"hardship","title":"Варшавское восстание (1944)","category":"мятеж","year_from":1944,"year_to":1944,"date_precision":"year","date_approx":false,"period_raw":"1944","summary":"восстание в Варшаве против нацистской Германии во время Второй мировой войны","url":"https://ru.wikipedia.org/wiki/%D0%92%D0%B0%D1%80%D1%88%D0%B0%D0%B2%D1%81%D0%BA%D0%BE%D0%B5_%D0%B2%D0%BE%D1%81%D1%81%D1%82%D0%B0%D0%BD%D0%B8%D0%B5_(1944)","image_url":"http://commons.wikimedia.org/wiki/Special:FilePath/Polish%20Soldier%27s%20Grave%20Warsaw%201945.jpg","source":"Викиданные","source_id":"Q1402078","license":"CC0 (Викиданные)","confidence":"ok"}},{"type":"Feature","id":"uprisings:acf17dac5275","geometry":{"type":"Point","coordinates":[37.6175,55.750556]},"properties":{"uid":"uprisings:acf17dac5275","layer":"uprisings","layer_title":"Восстания и волнения","group":"hardship","title":"Стрелецкий бунт","category":"восстание","year_from":1682,"year_to":1682,"date_precision":"year","date_approx":false,"period_raw":"1682","summary":"мятеж стрельцов, в результате которого фактической правительницей стали Иван и Пётр при регентстве Софьи Алексеевны","url":"https://ru.wikipedia.org/wiki/%D0%A1%D1%82%D1%80%D0%B5%D0%BB%D0%B5%D1%86%D0%BA%D0%B8%D0%B9_%D0%B1%D1%83%D0%BD%D1%82_(1682)","source":"Викиданные","source_id":"Q1633167","license":"CC0 (Викиданные)","confidence":"place_level"}},{"type":"Feature","id":"uprisings:c1431a930622","geometry":{"type":"Point","coordinates":[38.966667,55.8]},"properties":{"uid":"uprisings:c1431a930622","layer":"uprisings","layer_title":"Восстания и волнения","group":"hardship","title":"Морозовская стачка","category":"забастовка","year_from":1885,"year_to":1885,"date_precision":"year","date_approx":false,"period_raw":"1885","summary":"одна из крупнейших организованных забастовок рабочих Российской империи, произошедшая 7—17 января 1885 года на текстильной фабрике «Товарищества Никольской мануфактуры Саввы Морозова, сына и Ко»","url":"https://ru.wikipedia.org/wiki/%D0%9C%D0%BE%D1%80%D0%BE%D0%B7%D0%BE%D0%B2%D1%81%D0%BA%D0%B0%D1%8F_%D1%81%D1%82%D0%B0%D1%87%D0%BA%D0%B0","source":"Викиданные","source_id":"Q1727754","license":"CC0 (Викиданные)","confidence":"place_level"}},{"type":"Feature","id":"uprisings:be6410ef65a9","geometry":{"type":"Point","coordinates":[21.135,55.7125]},"properties":{"uid":"uprisings:be6410ef65a9","layer":"uprisings","layer_title":"Восстания и волнения","group":"hardship","title":"Мемельское восстание","category":"восстание","place_text":"Клайпеда","region":"Клайпеда","year_from":1923,"year_to":1923,"date_precision":"year","date_approx":false,"period_raw":"1923","summary":"восстание в январе 1923 года в Клайпедском крае","url":"https://ru.wikipedia.org/wiki/%D0%9C%D0%B5%D0%BC%D0%B5%D0%BB%D1%8C%D1%81%D0%BA%D0%BE%D0%B5_%D0%B2%D0%BE%D1%81%D1%81%D1%82%D0%B0%D0%BD%D0%B8%D0%B5","image_url":"http://commons.wikimedia.org/wiki/Special:FilePath/Memelland%201923-1939.png","source":"Викиданные","source_id":"Q3358934","license":"CC0 (Викиданные)","confidence":"ok"}},{"type":"Feature","id":"uprisings:eb52bc29a1e3","geometry":{"type":"Point","coordinates":[37.6175,55.750556]},"properties":{"uid":"uprisings:eb52bc29a1e3","layer":"uprisings","layer_title":"Восстания и волнения","group":"hardship","title":"Декабрьское восстание в Москве (1905)","category":"восстание","year_from":1905,"year_to":1906,"date_precision":"year","date_approx":false,"period_raw":"1905–1906","summary":"вооружённое восстание в Москве в ходе революции 1905 года","url":"https://ru.wikipedia.org/wiki/%D0%94%D0%B5%D0%BA%D0%B0%D0%B1%D1%80%D1%8C%D1%81%D0%BA%D0%BE%D0%B5_%D0%B2%D0%BE%D1%81%D1%81%D1%82%D0%B0%D0%BD%D0%B8%D0%B5_%D0%B2_%D0%9C%D0%BE%D1%81%D0%BA%D0%B2%D0%B5_(1905)","image_url":"http://commons.wikimedia.org/wiki/Special:FilePath/The%20Russian%20Revolution%2C%201905%20Q81555.jpg","source":"Викиданные","source_id":"Q4156944","license":"CC0 (Викиданные)","confidence":"place_level"}},{"type":"Feature","id":"uprisings:97de6b68c3ce","geometry":{"type":"Point","coordinates":[91.683333,53.7]},"properties":{"uid":"uprisings:97de6b68c3ce","layer":"uprisings","layer_title":"Восстания и волнения","group":"hardship","title":"Минусинское восстание","category":"восстание","year_from":1918,"year_to":1918,"date_precision":"year","date_approx":false,"period_raw":"1918","summary":"восстание в Енисейской губернии против белогвардейцев","url":"https://ru.wikipedia.org/wiki/%D0%9C%D0%B8%D0%BD%D1%83%D1%81%D0%B8%D0%BD%D1%81%D0%BA%D0%BE%D0%B5_%D0%B2%D0%BE%D1%81%D1%81%D1%82%D0%B0%D0%BD%D0%B8%D0%B5","source":"Викиданные","source_id":"Q4295277","license":"CC0 (Викиданные)","confidence":"place_level"}},{"type":"Feature","id":"uprisings:5af4be0082c8","geometry":{"type":"Point","coordinates":[59.666667,55.166667]},"properties":{"uid":"uprisings:5af4be0082c8","layer":"uprisings","layer_title":"Восстания и волнения","group":"hardship","title":"Расстрел демонстрации в Златоусте (1903)","category":"забастовка","year_from":1903,"year_to":1903,"date_precision":"year","date_approx":false,"period_raw":"1903","summary":"события, развернувшиеся 11 (24) марта — 13 (26) марта 1903 года во время забастовки златоустовских рабочих","url":"https://ru.wikipedia.org/wiki/%D0%A0%D0%B0%D1%81%D1%81%D1%82%D1%80%D0%B5%D0%BB_%D0%B4%D0%B5%D0%BC%D0%BE%D0%BD%D1%81%D1%82%D1%80%D0%B0%D1%86%D0%B8%D0%B8_%D0%B2_%D0%97%D0%BB%D0%B0%D1%82%D0%BE%D1%83%D1%81%D1%82%D0%B5_(1903)","source":"Викиданные","source_id":"Q4390502","license":"CC0 (Викиданные)","confidence":"place_level"}},{"type":"Feature","id":"uprisings:54a79732be09","geometry":{"type":"Point","coordinates":[35.921928,56.857828]},"properties":{"uid":"uprisings:54a79732be09","layer":"uprisings","layer_title":"Восстания и волнения","group":"hardship","title":"Тверское восстание","category":"восстание","year_from":1327,"year_to":1327,"date_precision":"year","date_approx":false,"period_raw":"1327","summary":"Восстание 1327 в Твери против монголо-татарского ига","url":"https://ru.wikipedia.org/wiki/%D0%A2%D0%B2%D0%B5%D1%80%D1%81%D0%BA%D0%BE%D0%B5_%D0%B2%D0%BE%D1%81%D1%81%D1%82%D0%B0%D0%BD%D0%B8%D0%B5","image_url":"http://commons.wikimedia.org/wiki/Special:FilePath/Facial%20Chronicle%20-%20b.07%2C%20p.286%20-%20Murder%20of%20Shevkal.jpg","source":"Викиданные","source_id":"Q4453239","license":"CC0 (Викиданные)","confidence":"place_level"}},{"type":"Feature","id":"uprisings:bebe23beddf2","geometry":{"type":"Point","coordinates":[33.5225,44.605]},"properties":{"uid":"uprisings:bebe23beddf2","layer":"uprisings","layer_title":"Восстания и волнения","group":"hardship","title":"Чумной бунт в Севастополе (1830)","category":"восстание","year_from":1830,"year_to":1830,"date_precision":"year","date_approx":false,"period_raw":"1830","summary":"народное восстание в Севастополе в 1830 году","url":"https://ru.wikipedia.org/wiki/%D0%A7%D1%83%D0%BC%D0%BD%D0%BE%D0%B9_%D0%B1%D1%83%D0%BD%D1%82_%D0%B2_%D0%A1%D0%B5%D0%B2%D0%B0%D1%81%D1%82%D0%BE%D0%BF%D0%BE%D0%BB%D0%B5_(1830)","source":"Викиданные","source_id":"Q4518055","license":"CC0 (Викиданные)","confidence":"place_level"}},{"type":"Feature","id":"uprisings:df5fc89107ce","geometry":{"type":"Point","coordinates":[75.326583,51.729778]},"properties":{"uid":"uprisings:df5fc89107ce","layer":"uprisings","layer_title":"Восстания и волнения","group":"hardship","title":"Экибастузская забастовка заключенных","category":"забастовка","year_from":1952,"year_to":1952,"date_precision":"year","date_approx":false,"period_raw":"1952","summary":"забастовка заключённых в 6-м лаготделении Песчанлага (Экибастуз, Казахстан) в конце января 1952 года","url":"https://ru.wikipedia.org/wiki/%D0%AD%D0%BA%D0%B8%D0%B1%D0%B0%D1%81%D1%82%D1%83%D0%B7%D1%81%D0%BA%D0%B0%D1%8F_%D0%B7%D0%B0%D0%B1%D0%B0%D1%81%D1%82%D0%BE%D0%B2%D0%BA%D0%B0_%D0%B7%D0%B0%D0%BA%D0%BB%D1%8E%D1%87%D1%91%D0%BD%D0%BD%D1%8B%D1%85","source":"Викиданные","source_id":"Q4530215","license":"CC0 (Викиданные)","confidence":"place_level"}},{"type":"Feature","id":"uprisings:b8974f472b50","geometry":{"type":"Point","coordinates":[23.933333,54.9]},"properties":{"uid":"uprisings:b8974f472b50","layer":"uprisings","layer_title":"Восстания и волнения","group":"hardship","title":"Попытка государственного переворота в Литве (1919)","category":"попытка государственного переворота","year_from":1919,"year_to":1919,"date_precision":"year","date_approx":false,"period_raw":"1919","summary":"попытка свергнуть литовское правительство с целью создания пропольского кабинета","url":"https://ru.wikipedia.org/wiki/%D0%9F%D0%BE%D0%BF%D1%8B%D1%82%D0%BA%D0%B0_%D0%B3%D0%BE%D1%81%D1%83%D0%B4%D0%B0%D1%80%D1%81%D1%82%D0%B2%D0%B5%D0%BD%D0%BD%D0%BE%D0%B3%D0%BE_%D0%BF%D0%B5%D1%80%D0%B5%D0%B2%D0%BE%D1%80%D0%BE%D1%82%D0%B0_%D0%B2_%D0%9B%D0%B8%D1%82%D0%B2%D0%B5_(1919)","source":"Викиданные","source_id":"Q4560679","license":"CC0 (Викиданные)","confidence":"place_level"}},{"type":"Feature","id":"uprisings:20de4bef43b0","geometry":{"type":"Point","coordinates":[39.893333,57.626389]},"properties":{"uid":"uprisings:20de4bef43b0","layer":"uprisings","layer_title":"Восстания и волнения","group":"hardship","title":"Ярославское восстание","category":"восстание","year_from":1918,"year_to":1918,"date_precision":"year","date_approx":false,"period_raw":"1918","summary":"эпизод гражданской войны в России, антибольшевистское выступление в Ярославле в июле 1918 года","url":"https://ru.wikipedia.org/wiki/%D0%AF%D1%80%D0%BE%D1%81%D0%BB%D0%B0%D0%B2%D1%81%D0%BA%D0%BE%D0%B5_%D0%B2%D0%BE%D1%81%D1%81%D1%82%D0%B0%D0%BD%D0%B8%D0%B5","image_url":"http://commons.wikimedia.org/wiki/Special:FilePath/The%20fire%20in%20Yaroslavl%20on%206.1918%20%28fragment%202%29.jpg","source":"Викиданные","source_id":"Q5671376","license":"CC0 (Викиданные)","confidence":"place_level"}},{"type":"Feature","id":"uprisings:939dd9f7cf29","geometry":{"type":"Point","coordinates":[30.523611,50.45]},"properties":{"uid":"uprisings:939dd9f7cf29","layer":"uprisings","layer_title":"Восстания и волнения","group":"hardship","title":"Октябрьское вооружённое восстание в Киеве","category":"восстание","year_from":1917,"year_to":1917,"date_precision":"year","date_approx":false,"period_raw":"1917","summary":"восстание в Киеве в 1917 году","url":"https://ru.wikipedia.org/wiki/%D0%9E%D0%BA%D1%82%D1%8F%D0%B1%D1%80%D1%8C%D1%81%D0%BA%D0%BE%D0%B5_%D0%B2%D0%BE%D0%BE%D1%80%D1%83%D0%B6%D1%91%D0%BD%D0%BD%D0%BE%D0%B5_%D0%B2%D0%BE%D1%81%D1%81%D1%82%D0%B0%D0%BD%D0%B8%D0%B5_%D0%B2_%D0%9A%D0%B8%D0%B5%D0%B2%D0%B5","source":"Викиданные","source_id":"Q6405684","license":"CC0 (Викиданные)","confidence":"place_level"}},{"type":"Feature","id":"uprisings:a3e7540562be","geometry":{"type":"Point","coordinates":[24.038889,49.848333]},"properties":{"uid":"uprisings:a3e7540562be","layer":"uprisings","layer_title":"Восстания и волнения","group":"hardship","title":"Осада Львова","category":"восстание","year_from":1648,"year_to":1648,"date_precision":"year","date_approx":false,"period_raw":"1648","summary":"восстание Богдана Хмельницкого","url":"https://ru.wikipedia.org/wiki/%D0%9E%D1%81%D0%B0%D0%B4%D0%B0_%D0%9B%D1%8C%D0%B2%D0%BE%D0%B2%D0%B0_(1648)","source":"Викиданные","source_id":"Q11794884","license":"CC0 (Викиданные)","confidence":"ok"}},{"type":"Feature","id":"uprisings:a48052976616","geometry":{"type":"Point","coordinates":[72.966667,50.066667]},"properties":{"uid":"uprisings:a48052976616","layer":"uprisings","layer_title":"Восстания и волнения","group":"hardship","title":"Восстание в Темиртау (1959)","category":"восстание","year_from":1959,"year_to":1959,"date_precision":"year","date_approx":false,"period_raw":"1959","summary":"Массовые беспорядки и забастовка в городе Темиртау, в августе 1959 года","url":"https://ru.wikipedia.org/wiki/%D0%9C%D0%B0%D1%81%D1%81%D0%BE%D0%B2%D1%8B%D0%B5_%D0%B1%D0%B5%D1%81%D0%BF%D0%BE%D1%80%D1%8F%D0%B4%D0%BA%D0%B8_%D0%B2_%D0%A2%D0%B5%D0%BC%D0%B8%D1%80%D1%82%D0%B0%D1%83_(1959)","source":"Викиданные","source_id":"Q12565348","license":"CC0 (Викиданные)","confidence":"place_level"}},{"type":"Feature","id":"uprisings:7d134e196393","geometry":{"type":"Point","coordinates":[48.526389,41.365278]},"properties":{"uid":"uprisings:7d134e196393","layer":"uprisings","layer_title":"Восстания и волнения","group":"hardship","title":"Кубинское восстание","category":"восстание","year_from":1837,"year_to":1837,"date_precision":"year","date_approx":false,"period_raw":"1837","summary":"восстание","url":"https://ru.wikipedia.org/wiki/%D0%9A%D1%83%D0%B1%D0%B8%D0%BD%D1%81%D0%BA%D0%BE%D0%B5_%D0%B2%D0%BE%D1%81%D1%81%D1%82%D0%B0%D0%BD%D0%B8%D0%B5","source":"Викиданные","source_id":"Q16415869","license":"CC0 (Викиданные)","confidence":"place_level"}},{"type":"Feature","id":"uprisings:0dc76de0e302","geometry":{"type":"Point","coordinates":[39.71,47.2225]},"properties":{"uid":"uprisings:0dc76de0e302","layer":"uprisings","layer_title":"Восстания и волнения","group":"hardship","title":"Ростовское восстание","category":"восстание","year_from":1905,"year_to":1905,"date_precision":"year","date_approx":false,"period_raw":"1905","summary":"вооружённое восстание в Ростове в ходе революции 1905 года","url":"https://ru.wikipedia.org/wiki/%D0%A0%D0%BE%D1%81%D1%82%D0%BE%D0%B2%D1%81%D0%BA%D0%BE%D0%B5_%D0%B2%D0%BE%D1%81%D1%81%D1%82%D0%B0%D0%BD%D0%B8%D0%B5_(1905)","source":"Викиданные","source_id":"Q16692725","license":"CC0 (Викиданные)","confidence":"place_level"}},{"type":"Feature","id":"uprisings:71195cdc2563","geometry":{"type":"Point","coordinates":[36.231111,49.9925]},"properties":{"uid":"uprisings:71195cdc2563","layer":"uprisings","layer_title":"Восстания и волнения","group":"hardship","title":"Харьковское восстание","category":"восстание","year_from":1905,"year_to":1906,"date_precision":"year","date_approx":false,"period_raw":"1905–1906","summary":"вооружённое восстание в Харькове в ходе революции 1905 года","url":"https://ru.wikipedia.org/wiki/%D0%A5%D0%B0%D1%80%D1%8C%D0%BA%D0%BE%D0%B2%D1%81%D0%BA%D0%BE%D0%B5_%D0%B2%D0%BE%D1%81%D1%81%D1%82%D0%B0%D0%BD%D0%B8%D0%B5_(1905)","source":"Викиданные","source_id":"Q16713621","license":"CC0 (Викиданные)","confidence":"place_level"}},{"type":"Feature","id":"uprisings:f00a7a40c715","geometry":{"type":"Point","coordinates":[37.6175,55.750556]},"properties":{"uid":"uprisings:f00a7a40c715","layer":"uprisings","layer_title":"Восстания и волнения","group":"hardship","title":"Московское восстание","category":"восстание","year_from":1611,"year_to":1611,"date_precision":"year","date_approx":false,"period_raw":"1611","summary":"Московское Восстание 1611 года вооруженное выступление жителей Москвы 19-20 марта 1611 года против войск Речи Посполитой, оккупировавших город с осени 1610 года","url":"https://ru.wikipedia.org/wiki/%D0%9C%D0%BE%D1%81%D0%BA%D0%BE%D0%B2%D1%81%D0%BA%D0%BE%D0%B5_%D0%B2%D0%BE%D1%81%D1%81%D1%82%D0%B0%D0%BD%D0%B8%D0%B5_(1611)","source":"Викиданные","source_id":"Q19692571","license":"CC0 (Викиданные)","confidence":"place_level"}}]}